{
 "type": "FeatureCollection",
 "copyright": "The data included in this document is from www.openstreetmap.org. The data is made available under ODbL.",
 "note": "Overpass export, tags reduced, rings simplified (Douglas-Peucker, tolerance 0.0004 deg) and rounded to 5 decimals.",
 "features": [
  {
   "type": "Feature",
   "properties": {
    "@id": "relation/937635",
    "admin_level": "6",
    "boundary": "administrative",
    "name": "Περιφερειακή Ενότητα Αργολίδος",
    "name:de": "Regionalbezirk Argolis",
    "name:el": "Περιφερειακή Ενότητα Αργολίδος",
    "name:en": "Argolis Regional Unit",
    "population": "93216",
    "type": "boundary",
    "wikidata": "Q191897",
    "wikipedia": "en:Argolis"
   },
   "geometry": {
    "type": "Polygon",
    "coordinates": [
     [
      [
       23.42451,
       37.41212
      ],
      [
       23.4238,
       37.41695
      ],
      [
       23.42562,
       37.42048
      ],
      [
       23.43235,
       37.42707
      ],
      [
       23.43361,
       37.42938
      ],
      [
       23.4407,
       37.43411
      ],
      [
       23.44241,
       37.43556
      ],
      [
       23.44383,
       37.43795
      ],
      [
       23.44779,
       37.4407
      ],
      [
       23.45353,
       37.44942
      ],
      [
       23.45436,
       37.4631
      ],
      [
       23.44571,
       37.46508
      ],
      [
       23.44011,
       37.46491
      ],
      [
       23.43591,
       37.46679
      ],
      [
       23.42796,
       37.46858
      ],
      [
       23.42297,
       37.46891
      ],
      [
       23.4217,
       37.46816
      ],
      [
       23.41998,
       37.46569
      ],
      [
       23.41637,
       37.46457
      ],
      [
       23.4097,
       37.45788
      ],
      [
       23.40522,
       37.45657
      ],
      [
       23.40016,
       37.45818
      ],
      [
       23.39156,
       37.45761
      ],
      [
       23.38427,
       37.45862
      ],
      [
       23.374,
       37.46221
      ],
      [
       23.37123,
       37.46221
      ],
      [
       23.36495,
       37.46393
      ],
      [
       23.35287,
       37.46212
      ],
      [
       23.34883,
       37.45937
      ],
      [
       23.34704,
       37.45899
      ],
      [
       23.34398,
       37.46145
      ],
      [
       23.34295,
       37.46866
      ],
      [
       23.34205,
       37.47127
      ],
      [
       23.34093,
       37.47251
      ],
      [
       23.3334,
       37.47058
      ],
      [
       23.32647,
       37.46788
      ],
      [
       23.31515,
       37.46866
      ],
      [
       23.30972,
       37.47097
      ],
      [
       23.30883,
       37.47427
      ],
      [
       23.30989,
       37.48091
      ],
      [
       23.31168,
       37.48631
      ],
      [
       23.31122,
       37.48861
      ],
      [
       23.30786,
       37.49308
      ],
      [
       23.304,
       37.49452
      ],
      [
       23.30226,
       37.4968
      ],
      [
       23.29653,
       37.49454
      ],
      [
       23.29155,
       37.49652
      ],
      [
       23.2894,
       37.49428
      ],
      [
       23.28628,
       37.49275
      ],
      [
       23.27586,
       37.49394
      ],
      [
       23.27368,
       37.49329
      ],
      [
       23.27036,
       37.49575
      ],
      [
       23.27268,
       37.50052
      ],
      [
       23.27203,
       37.5024
      ],
      [
       23.26458,
       37.50266
      ],
      [
       23.25825,
       37.50435
      ],
      [
       23.25352,
       37.50215
      ],
      [
       23.25105,
       37.50172
      ],
      [
       23.23557,
       37.51097
      ],
      [
       23.22468,
       37.51365
      ],
      [
       23.22398,
       37.51807
      ],
      [
       23.21964,
       37.52205
      ],
      [
       23.20702,
       37.52277
      ],
      [
       23.19723,
       37.52126
      ],
      [
       23.1801,
       37.52434
      ],
      [
       23.17653,
       37.52524
      ],
      [
       23.17516,
       37.52677
      ],
      [
       23.17131,
       37.53434
      ],
      [
       23.16782,
       37.53416
      ],
      [
       23.16708,
       37.53463
      ],
      [
       23.16509,
       37.54007
      ],
      [
       23.16432,
       37.54447
      ],
      [
       23.1673,
       37.54938
      ],
      [
       23.17129,
       37.56193
      ],
      [
       23.17656,
       37.567
      ],
      [
       23.17839,
       37.56789
      ],
      [
       23.18471,
       37.56718
      ],
      [
       23.18571,
       37.56765
      ],
      [
       23.18737,
       37.56953
      ],
      [
       23.19021,
       37.57585
      ],
      [
       23.19033,
       37.5797
      ],
      [
       23.18669,
       37.58424
      ],
      [
       23.18531,
       37.58952
      ],
      [
       23.18622,
       37.59016
      ],
      [
       23.18956,
       37.58967
      ],
      [
       23.19244,
       37.59003
      ],
      [
       23.1987,
       37.59422
      ],
      [
       23.20035,
       37.5968
      ],
      [
       23.24598,
       37.64496
      ],
      [
       23.23488,
       37.68722
      ],
      [
       23.22389,
       37.73658
      ],
      [
       23.121,
       37.7299
      ],
      [
       23.11093,
       37.727
      ],
      [
       23.10845,
       37.725
      ],
      [
       23.10642,
       37.72173
      ],
      [
       23.09779,
       37.72098
      ],
      [
       23.08907,
       37.72103
      ],
      [
       23.0845,
       37.72483
      ],
      [
       23.07815,
       37.72548
      ],
      [
       23.07322,
       37.72857
      ],
      [
       23.0703,
       37.72956
      ],
      [
       23.06828,
       37.72954
      ],
      [
       23.06478,
       37.72766
      ],
      [
       23.06321,
       37.72585
      ],
      [
       23.05995,
       37.71724
      ],
      [
       23.05732,
       37.71275
      ],
      [
       23.04654,
       37.70196
      ],
      [
       23.03273,
       37.70973
      ],
      [
       23.02765,
       37.71187
      ],
      [
       23.01841,
       37.71097
      ],
      [
       23.00572,
       37.7072
      ],
      [
       22.99936,
       37.7073
      ],
      [
       22.99109,
       37.71165
      ],
      [
       22.98906,
       37.71347
      ],
      [
       22.98761,
       37.71631
      ],
      [
       22.98541,
       37.71697
      ],
      [
       22.97511,
       37.71598
      ],
      [
       22.97068,
       37.71162
      ],
      [
       22.96765,
       37.71035
      ],
      [
       22.95989,
       37.70905
      ],
      [
       22.95537,
       37.70944
      ],
      [
       22.95106,
       37.72051
      ],
      [
       22.94679,
       37.72459
      ],
      [
       22.94635,
       37.72824
      ],
      [
       22.94819,
       37.73334
      ],
      [
       22.95657,
       37.7401
      ],
      [
       22.95718,
       37.74096
      ],
      [
       22.95689,
       37.742
      ],
      [
       22.94911,
       37.73982
      ],
      [
       22.94575,
       37.74064
      ],
      [
       22.93854,
       37.7442
      ],
      [
       22.93142,
       37.74467
      ],
      [
       22.92994,
       37.74575
      ],
      [
       22.9281,
       37.74899
      ],
      [
       22.91638,
       37.75535
      ],
      [
       22.91179,
       37.75122
      ],
      [
       22.90851,
       37.74982
      ],
      [
       22.90429,
       37.75011
      ],
      [
       22.90085,
       37.75148
      ],
      [
       22.89522,
       37.75241
      ],
      [
       22.88939,
       37.75115
      ],
      [
       22.88153,
       37.74707
      ],
      [
       22.87484,
       37.74082
      ],
      [
       22.87039,
       37.73885
      ],
      [
       22.85486,
       37.73838
      ],
      [
       22.82616,
       37.73323
      ],
      [
       22.81952,
       37.73385
      ],
      [
       22.80927,
       37.73746
      ],
      [
       22.80691,
       37.73773
      ],
      [
       22.79165,
       37.73396
      ],
      [
       22.78687,
       37.73395
      ],
      [
       22.78383,
       37.73477
      ],
      [
       22.7753,
       37.73902
      ],
      [
       22.76997,
       37.73982
      ],
      [
       22.75885,
       37.7439
      ],
      [
       22.74904,
       37.75063
      ],
      [
       22.74629,
       37.7551
      ],
      [
       22.7471,
       37.75785
      ],
      [
       22.74708,
       37.7605
      ],
      [
       22.74619,
       37.76206
      ],
      [
       22.74397,
       37.76366
      ],
      [
       22.7432,
       37.76532
      ],
      [
       22.74409,
       37.77149
      ],
      [
       22.7462,
       37.77497
      ],
      [
       22.74505,
       37.77785
      ],
      [
       22.72966,
       37.77093
      ],
      [
       22.72531,
       37.76955
      ],
      [
       22.72408,
       37.77077
      ],
      [
       22.72472,
       37.77436
      ],
      [
       22.72257,
       37.77937
      ],
      [
       22.72151,
       37.78033
      ],
      [
       22.71865,
       37.78016
      ],
      [
       22.70833,
       37.77731
      ],
      [
       22.70369,
       37.77299
      ],
      [
       22.69471,
       37.77383
      ],
      [
       22.68885,
       37.77342
      ],
      [
       22.68808,
       37.77114
      ],
      [
       22.68499,
       37.7663
      ],
      [
       22.68168,
       37.76442
      ],
      [
       22.67696,
       37.76337
      ],
      [
       22.66658,
       37.7639
      ],
      [
       22.65675,
       37.76758
      ],
      [
       22.65624,
       37.76842
      ],
      [
       22.65647,
       37.77057
      ],
      [
       22.65433,
       37.77391
      ],
      [
       22.65101,
       37.77662
      ],
      [
       22.64547,
       37.7783
      ],
      [
       22.64103,
       37.77891
      ],
      [
       22.62528,
       37.77812
      ],
      [
       22.61655,
       37.77695
      ],
      [
       22.61477,
       37.77875
      ],
      [
       22.61377,
       37.78094
      ],
      [
       22.61294,
       37.78798
      ],
      [
       22.61078,
       37.78691
      ],
      [
       22.60714,
       37.78305
      ],
      [
       22.60231,
       37.78148
      ],
      [
       22.59864,
       37.78268
      ],
      [
       22.59233,
       37.7873
      ],
      [
       22.5748,
       37.79229
      ],
      [
       22.56977,
       37.79291
      ],
      [
       22.56049,
       37.7919
      ],
      [
       22.5504,
       37.78515
      ],
      [
       22.5431,
       37.78161
      ],
      [
       22.53515,
       37.78037
      ],
      [
       22.53267,
       37.78431
      ],
      [
       22.53142,
       37.79231
      ],
      [
       22.53272,
       37.80407
      ],
      [
       22.53455,
       37.80838
      ],
      [
       22.53985,
       37.81709
      ],
      [
       22.54772,
       37.82585
      ],
      [
       22.55321,
       37.82954
      ],
      [
       22.56291,
       37.83353
      ],
      [
       22.56361,
       37.8343
      ],
      [
       22.56008,
       37.84229
      ],
      [
       22.55883,
       37.84975
      ],
      [
       22.55821,
       37.85072
      ],
      [
       22.55734,
       37.85032
      ],
      [
       22.55136,
       37.84303
      ],
      [
       22.54887,
       37.84142
      ],
      [
       22.53178,
       37.83677
      ],
      [
       22.52152,
       37.8352
      ],
      [
       22.51861,
       37.83646
      ],
      [
       22.51509,
       37.84084
      ],
      [
       22.51051,
       37.8436
      ],
      [
       22.50244,
       37.8537
      ],
      [
       22.50029,
       37.857
      ],
      [
       22.50146,
       37.86078
      ],
      [
       22.49256,
       37.85906
      ],
      [
       22.48559,
       37.85298
      ],
      [
       22.48246,
       37.84862
      ],
      [
       22.47841,
       37.84475
      ],
      [
       22.46516,
       37.84
      ],
      [
       22.45985,
       37.8354
      ],
      [
       22.45434,
       37.82735
      ],
      [
       22.44369,
       37.81731
      ],
      [
       22.43763,
       37.81663
      ],
      [
       22.43472,
       37.81515
      ],
      [
       22.4313,
       37.8084
      ],
      [
       22.42773,
       37.80425
      ],
      [
       22.42229,
       37.80479
      ],
      [
       22.41527,
       37.80085
      ],
      [
       22.41032,
       37.79995
      ],
      [
       22.4041,
       37.80084
      ],
      [
       22.39739,
       37.80409
      ],
      [
       22.39185,
       37.80389
      ],
      [
       22.39128,
       37.79932
      ],
      [
       22.39269,
       37.79793
      ],
      [
       22.39777,
       37.79539
      ],
      [
       22.39959,
       37.79306
      ],
      [
       22.40114,
       37.78162
      ],
      [
       22.40224,
       37.78016
      ],
      [
       22.40659,
       37.77829
      ],
      [
       22.41354,
       37.77078
      ],
      [
       22.40799,
       37.77
      ],
      [
       22.40619,
       37.76885
      ],
      [
       22.40476,
       37.76553
      ],
      [
       22.40285,
       37.75706
      ],
      [
       22.40455,
       37.75447
      ],
      [
       22.40513,
       37.75024
      ],
      [
       22.40862,
       37.74592
      ],
      [
       22.4092,
       37.74412
      ],
      [
       22.40898,
       37.74094
      ],
      [
       22.40509,
       37.73653
      ],
      [
       22.39967,
       37.73303
      ],
      [
       22.39876,
       37.72945
      ],
      [
       22.4004,
       37.72754
      ],
      [
       22.39965,
       37.72372
      ],
      [
       22.39844,
       37.72302
      ],
      [
       22.39904,
       37.7104
      ],
      [
       22.40149,
       37.70729
      ],
      [
       22.40392,
       37.70107
      ],
      [
       22.40314,
       37.69463
      ],
      [
       22.40364,
       37.68985
      ],
      [
       22.40505,
       37.68742
      ],
      [
       22.40788,
       37.68572
      ],
      [
       22.40871,
       37.67573
      ],
      [
       22.41139,
       37.67654
      ],
      [
       22.42232,
       37.68292
      ],
      [
       22.42531,
       37.68152
      ],
      [
       22.43005,
       37.68413
      ],
      [
       22.43276,
       37.68696
      ],
      [
       22.44196,
       37.6936
      ],
      [
       22.44661,
       37.69778
      ],
      [
       22.4495,
       37.70164
      ],
      [
       22.4508,
       37.70501
      ],
      [
       22.4525,
       37.69821
      ],
      [
       22.45575,
       37.69305
      ],
      [
       22.46167,
       37.68854
      ],
      [
       22.46549,
       37.68449
      ],
      [
       22.47227,
       37.68079
      ],
      [
       22.47426,
       37.67882
      ],
      [
       22.4741,
       37.66814
      ],
      [
       22.47339,
       37.66397
      ],
      [
       22.47926,
       37.65199
      ],
      [
       22.47982,
       37.6369
      ],
      [
       22.48619,
       37.62485
      ],
      [
       22.48814,
       37.61882
      ],
      [
       22.49037,
       37.61673
      ],
      [
       22.49447,
       37.61512
      ],
      [
       22.50241,
       37.61631
      ],
      [
       22.51354,
       37.61685
      ],
      [
       22.51386,
       37.61329
      ],
      [
       22.51278,
       37.611
      ],
      [
       22.50676,
       37.60409
      ],
      [
       22.50156,
       37.59984
      ],
      [
       22.50149,
       37.59842
      ],
      [
       22.50315,
       37.59426
      ],
      [
       22.50569,
       37.58951
      ],
      [
       22.50901,
       37.58691
      ],
      [
       22.52428,
       37.57922
      ],
      [
       22.53493,
       37.56805
      ],
      [
       22.53763,
       37.56397
      ],
      [
       22.53644,
       37.56011
      ],
      [
       22.53094,
       37.5533
      ],
      [
       22.52908,
       37.54798
      ],
      [
       22.52439,
       37.53871
      ],
      [
       22.52088,
       37.53011
      ],
      [
       22.51501,
       37.5192
      ],
      [
       22.51487,
       37.51656
      ],
      [
       22.51664,
       37.51408
      ],
      [
       22.52233,
       37.49894
      ],
      [
       22.52423,
       37.49672
      ],
      [
       22.53058,
       37.49493
      ],
      [
       22.5348,
       37.49128
      ],
      [
       22.53828,
       37.49028
      ],
      [
       22.54084,
       37.48783
      ],
      [
       22.54354,
       37.48686
      ],
      [
       22.54984,
       37.48682
      ],
      [
       22.55633,
       37.48832
      ],
      [
       22.56695,
       37.48933
      ],
      [
       22.57473,
       37.48858
      ],
      [
       22.57948,
       37.48689
      ],
      [
       22.58178,
       37.48517
      ],
      [
       22.58296,
       37.48289
      ],
      [
       22.58321,
       37.47559
      ],
      [
       22.58485,
       37.47036
      ],
      [
       22.59169,
       37.46205
      ],
      [
       22.5919,
       37.4542
      ],
      [
       22.59536,
       37.45244
      ],
      [
       22.62035,
       37.4504
      ],
      [
       22.63367,
       37.45201
      ],
      [
       22.64107,
       37.45164
      ],
      [
       22.6435,
       37.4532
      ],
      [
       22.64567,
       37.45614
      ],
      [
       22.64868,
       37.46441
      ],
      [
       22.6511,
       37.4657
      ],
      [
       22.65505,
       37.46645
      ],
      [
       22.66293,
       37.4661
      ],
      [
       22.66968,
       37.46656
      ],
      [
       22.67647,
       37.46786
      ],
      [
       22.681,
       37.46643
      ],
      [
       22.68937,
       37.46191
      ],
      [
       22.69333,
       37.46091
      ],
      [
       22.69525,
       37.46355
      ],
      [
       22.69813,
       37.47181
      ],
      [
       22.69647,
       37.48016
      ],
      [
       22.69457,
       37.48484
      ],
      [
       22.7056,
       37.495
      ],
      [
       22.70946,
       37.50139
      ],
      [
       22.71028,
       37.50836
      ],
      [
       22.71716,
       37.51177
      ],
      [
       22.72223,
       37.51218
      ],
      [
       22.72587,
       37.51337
      ],
      [
       22.73461,
       37.52242
      ],
      [
       22.77321,
       37.53408
      ],
      [
       22.91229,
       37.3643
      ],
      [
       22.92363,
       37.3589
      ],
      [
       22.93639,
       37.35458
      ],
      [
       22.94915,
       37.35176
      ],
      [
       22.96189,
       37.35032
      ],
      [
       22.96437,
       37.33976
      ],
      [
       22.96879,
       37.32925
      ],
      [
       22.97815,
       37.31447
      ],
      [
       22.98424,
       37.30661
      ],
      [
       23.10976,
       37.2954
      ],
      [
       23.16162,
       37.27722
      ],
      [
       23.17906,
       37.27347
      ],
      [
       23.18718,
       37.2726
      ],
      [
       23.20234,
       37.27292
      ],
      [
       23.20941,
       37.27411
      ],
      [
       23.22264,
       37.27859
      ],
      [
       23.23478,
       37.28589
      ],
      [
       23.2405,
       37.29061
      ],
      [
       23.2513,
       37.30223
      ],
      [
       23.2614,
       37.31677
      ],
      [
       23.27096,
       37.33428
      ],
      [
       23.27544,
       37.34058
      ],
      [
       23.28209,
       37.34606
      ],
      [
       23.29069,
       37.35082
      ],
      [
       23.30102,
       37.35491
      ],
      [
       23.31285,
       37.35844
      ],
      [
       23.34007,
       37.36405
      ],
      [
       23.37054,
       37.36828
      ],
      [
       23.4317,
       37.37477
      ],
      [
       23.42451,
       37.41212
      ]
     ]
    ]
   }
  },
  {
   "type": "Feature",
   "properties": {
    "@id": "relation/2185768",
    "admin_level": "7",
    "boundary": "administrative",
    "name": "Δήμος Ερμιονίδας",
    "name:el": "Δήμος Ερμιονίδας",
    "name:en": "Municipality of Ermionida",
    "type": "boundary",
    "wikidata": "Q616733",
    "wikipedia": "el:Δήμος Ερμιονίδας"
   },
   "geometry": {
    "type": "MultiPolygon",
    "coordinates": [
     [
      [
       [
        23.20532,
        37.30522
       ],
       [
        23.20585,
        37.3058
       ],
       [
        23.20438,
        37.30657
       ],
       [
        23.2043,
        37.30734
       ],
       [
        23.2029,
        37.30683
       ],
       [
        23.20284,
        37.30618
       ],
       [
        23.20333,
        37.30643
       ],
       [
        23.20532,
        37.30522
       ]
      ]
     ],
     [
      [
       [
        23.11924,
        37.42355
       ],
       [
        23.12429,
        37.42498
       ],
       [
        23.12517,
        37.42645
       ],
       [
        23.12359,
        37.42702
       ],
       [
        23.12064,
        37.42656
       ],
       [
        23.11782,
        37.42757
       ],
       [
        23.11565,
        37.42715
       ],
       [
        23.11571,
        37.42655
       ],
       [
        23.11691,
        37.42606
       ],
       [
        23.11568,
        37.42494
       ],
       [
        23.11633,
        37.4242
       ],
       [
        23.11924,
        37.42355
       ]
      ]
     ],
     [
      [
       [
        23.31841,
        37.4031
       ],
       [
        23.32185,
        37.405
       ],
       [
        23.32541,
        37.40558
       ],
       [
        23.32634,
        37.40725
       ],
       [
        23.33243,
        37.41255
       ],
       [
        23.33418,
        37.41245
       ],
       [
        23.33522,
        37.41332
       ],
       [
        23.3362,
        37.41299
       ],
       [
        23.33728,
        37.414
       ],
       [
        23.33953,
        37.4142
       ],
       [
        23.33961,
        37.41524
       ],
       [
        23.34056,
        37.41538
       ],
       [
        23.34009,
        37.41393
       ],
       [
        23.34081,
        37.41449
       ],
       [
        23.34534,
        37.41449
       ],
       [
        23.35156,
        37.41338
       ],
       [
        23.35193,
        37.41285
       ],
       [
        23.35239,
        37.4136
       ],
       [
        23.35219,
        37.41305
       ],
       [
        23.35784,
        37.41345
       ],
       [
        23.36487,
        37.41291
       ],
       [
        23.37499,
        37.41088
       ],
       [
        23.37925,
        37.41144
       ],
       [
        23.38648,
        37.41082
       ],
       [
        23.38673,
        37.41124
       ],
       [
        23.3868,
        37.41077
       ],
       [
        23.39743,
        37.40869
       ],
       [
        23.39709,
        37.40833
       ],
       [
        23.40909,
        37.40391
       ],
       [
        23.41159,
        37.4043
       ],
       [
        23.41676,
        37.40666
       ],
       [
        23.41736,
        37.40617
       ],
       [
        23.41709,
        37.4067
       ],
       [
        23.41786,
        37.40752
       ],
       [
        23.42045,
        37.40858
       ],
       [
        23.42451,
        37.41212
       ],
       [
        23.4238,
        37.41695
       ],
       [
        23.42562,
        37.42048
       ],
       [
        23.43235,
        37.42707
       ],
       [
        23.43361,
        37.42938
       ],
       [
        23.4407,
        37.43411
       ],
       [
        23.44241,
        37.43556
       ],
       [
        23.44383,
        37.43795
       ],
       [
        23.44779,
        37.4407
       ],
       [
        23.45287,
        37.44833
       ],
       [
        23.45397,
        37.45123
       ],
       [
        23.45456,
        37.46283
       ],
       [
        23.45297,
        37.46369
       ],
       [
        23.44571,
        37.46508
       ],
       [
        23.44011,
        37.46491
       ],
       [
        23.43591,
        37.46679
       ],
       [
        23.42796,
        37.46858
       ],
       [
        23.42297,
        37.46891
       ],
       [
        23.4217,
        37.46816
       ],
       [
        23.41998,
        37.46569
       ],
       [
        23.41637,
        37.46457
       ],
       [
        23.4097,
        37.45788
       ],
       [
        23.40522,
        37.45657
       ],
       [
        23.40016,
        37.45818
       ],
       [
        23.39156,
        37.45761
       ],
       [
        23.38427,
        37.45862
       ],
       [
        23.374,
        37.46221
       ],
       [
        23.37123,
        37.46221
       ],
       [
        23.36495,
        37.46393
       ],
       [
        23.35287,
        37.46212
       ],
       [
        23.34883,
        37.45937
       ],
       [
        23.34704,
        37.45899
       ],
       [
        23.34398,
        37.46145
       ],
       [
        23.34295,
        37.46866
       ],
       [
        23.34205,
        37.47127
       ],
       [
        23.34093,
        37.47251
       ],
       [
        23.3334,
        37.47058
       ],
       [
        23.32647,
        37.46788
       ],
       [
        23.31515,
        37.46866
       ],
       [
        23.30972,
        37.47097
       ],
       [
        23.30883,
        37.47427
       ],
       [
        23.30989,
        37.48091
       ],
       [
        23.31168,
        37.48631
       ],
       [
        23.31122,
        37.48861
       ],
       [
        23.30786,
        37.49308
       ],
       [
        23.304,
        37.49452
       ],
       [
        23.30226,
        37.4968
       ],
       [
        23.29653,
        37.49454
       ],
       [
        23.29155,
        37.49652
       ],
       [
        23.2894,
        37.49428
       ],
       [
        23.28628,
        37.49275
       ],
       [
        23.27586,
        37.49394
       ],
       [
        23.27368,
        37.49329
       ],
       [
        23.27036,
        37.49575
       ],
       [
        23.27268,
        37.50052
       ],
       [
        23.27222,
        37.50231
       ],
       [
        23.26458,
        37.50266
       ],
       [
        23.25825,
        37.50435
       ],
       [
        23.25305,
        37.502
       ],
       [
        23.25063,
        37.50185
       ],
       [
        23.23557,
        37.51097
       ],
       [
        23.22468,
        37.51365
       ],
       [
        23.22398,
        37.51807
       ],
       [
        23.21964,
        37.52205
       ],
       [
        23.20702,
        37.52277
       ],
       [
        23.19723,
        37.52126
       ],
       [
        23.1801,
        37.52434
       ],
       [
        23.17653,
        37.52524
       ],
       [
        23.17516,
        37.52677
       ],
       [
        23.17131,
        37.53434
       ],
       [
        23.16673,
        37.53366
       ],
       [
        23.16081,
        37.53458
       ],
       [
        23.15737,
        37.53041
       ],
       [
        23.15427,
        37.52805
       ],
       [
        23.14169,
        37.52811
       ],
       [
        23.14066,
        37.52532
       ],
       [
        23.14284,
        37.52295
       ],
       [
        23.1373,
        37.51918
       ],
       [
        23.13447,
        37.50862
       ],
       [
        23.13043,
        37.50479
       ],
       [
        23.12567,
        37.50331
       ],
       [
        23.12208,
        37.5038
       ],
       [
        23.11755,
        37.50332
       ],
       [
        23.11508,
        37.50179
       ],
       [
        23.11201,
        37.5009
       ],
       [
        23.09915,
        37.50081
       ],
       [
        23.09615,
        37.49995
       ],
       [
        23.09089,
        37.49975
       ],
       [
        23.08685,
        37.49778
       ],
       [
        23.08631,
        37.49699
       ],
       [
        23.08655,
        37.4929
       ],
       [
        23.08589,
        37.49059
       ],
       [
        23.08915,
        37.48579
       ],
       [
        23.08939,
        37.48291
       ],
       [
        23.08916,
        37.48162
       ],
       [
        23.08736,
        37.47928
       ],
       [
        23.08299,
        37.47621
       ],
       [
        23.07995,
        37.47573
       ],
       [
        23.07379,
        37.47342
       ],
       [
        23.06238,
        37.46657
       ],
       [
        23.05315,
        37.46402
       ],
       [
        23.05186,
        37.46304
       ],
       [
        23.05175,
        37.46169
       ],
       [
        23.05006,
        37.46215
       ],
       [
        23.04765,
        37.46105
       ],
       [
        23.04635,
        37.46155
       ],
       [
        23.04391,
        37.46011
       ],
       [
        23.04319,
        37.45811
       ],
       [
        23.04323,
        37.45752
       ],
       [
        23.04481,
        37.45712
       ],
       [
        23.04808,
        37.45747
       ],
       [
        23.04933,
        37.45669
       ],
       [
        23.04978,
        37.45534
       ],
       [
        23.05146,
        37.45654
       ],
       [
        23.05379,
        37.45361
       ],
       [
        23.05362,
        37.453
       ],
       [
        23.05504,
        37.4519
       ],
       [
        23.06107,
        37.45022
       ],
       [
        23.06367,
        37.45027
       ],
       [
        23.06501,
        37.45118
       ],
       [
        23.06484,
        37.45195
       ],
       [
        23.06697,
        37.45305
       ],
       [
        23.06794,
        37.45146
       ],
       [
        23.0696,
        37.45123
       ],
       [
        23.07019,
        37.45312
       ],
       [
        23.07128,
        37.4534
       ],
       [
        23.07236,
        37.45272
       ],
       [
        23.07354,
        37.45427
       ],
       [
        23.08048,
        37.45274
       ],
       [
        23.08324,
        37.4529
       ],
       [
        23.08767,
        37.45404
       ],
       [
        23.08943,
        37.4557
       ],
       [
        23.09201,
        37.45587
       ],
       [
        23.09399,
        37.45463
       ],
       [
        23.09881,
        37.4533
       ],
       [
        23.102,
        37.45446
       ],
       [
        23.10637,
        37.4533
       ],
       [
        23.10782,
        37.45357
       ],
       [
        23.10936,
        37.45249
       ],
       [
        23.11353,
        37.45189
       ],
       [
        23.11488,
        37.45112
       ],
       [
        23.1189,
        37.45175
       ],
       [
        23.12326,
        37.44977
       ],
       [
        23.12517,
        37.44351
       ],
       [
        23.12251,
        37.44227
       ],
       [
        23.12011,
        37.44253
       ],
       [
        23.1196,
        37.44182
       ],
       [
        23.12416,
        37.44009
       ],
       [
        23.12916,
        37.43985
       ],
       [
        23.13247,
        37.4388
       ],
       [
        23.13291,
        37.43092
       ],
       [
        23.13187,
        37.42977
       ],
       [
        23.13395,
        37.42929
       ],
       [
        23.13397,
        37.42769
       ],
       [
        23.13363,
        37.42649
       ],
       [
        23.13146,
        37.42545
       ],
       [
        23.13012,
        37.42393
       ],
       [
        23.13144,
        37.4213
       ],
       [
        23.13445,
        37.41938
       ],
       [
        23.14344,
        37.41606
       ],
       [
        23.14333,
        37.41481
       ],
       [
        23.14177,
        37.41454
       ],
       [
        23.1396,
        37.41151
       ],
       [
        23.1386,
        37.4114
       ],
       [
        23.13623,
        37.40955
       ],
       [
        23.13206,
        37.40984
       ],
       [
        23.13181,
        37.41097
       ],
       [
        23.13075,
        37.41011
       ],
       [
        23.12684,
        37.41342
       ],
       [
        23.12711,
        37.41584
       ],
       [
        23.12667,
        37.41592
       ],
       [
        23.12757,
        37.41658
       ],
       [
        23.12694,
        37.41665
       ],
       [
        23.12712,
        37.41751
       ],
       [
        23.124,
        37.41679
       ],
       [
        23.12168,
        37.41701
       ],
       [
        23.11365,
        37.42095
       ],
       [
        23.112,
        37.42273
       ],
       [
        23.11039,
        37.4221
       ],
       [
        23.11008,
        37.42031
       ],
       [
        23.10781,
        37.41955
       ],
       [
        23.10876,
        37.41863
       ],
       [
        23.11012,
        37.41887
       ],
       [
        23.11193,
        37.41813
       ],
       [
        23.10984,
        37.41661
       ],
       [
        23.10947,
        37.41566
       ],
       [
        23.11033,
        37.41133
       ],
       [
        23.11297,
        37.41113
       ],
       [
        23.11327,
        37.41028
       ],
       [
        23.11271,
        37.40969
       ],
       [
        23.11327,
        37.40908
       ],
       [
        23.11307,
        37.408
       ],
       [
        23.11219,
        37.40739
       ],
       [
        23.11202,
        37.40452
       ],
       [
        23.11126,
        37.40396
       ],
       [
        23.11198,
        37.40323
       ],
       [
        23.11206,
        37.40161
       ],
       [
        23.11091,
        37.39876
       ],
       [
        23.10923,
        37.39765
       ],
       [
        23.10754,
        37.39914
       ],
       [
        23.1058,
        37.39906
       ],
       [
        23.10609,
        37.39707
       ],
       [
        23.1071,
        37.39595
       ],
       [
        23.10588,
        37.39595
       ],
       [
        23.10433,
        37.39485
       ],
       [
        23.10372,
        37.39401
       ],
       [
        23.10441,
        37.39369
       ],
       [
        23.10426,
        37.39296
       ],
       [
        23.10262,
        37.39242
       ],
       [
        23.1029,
        37.39193
       ],
       [
        23.10164,
        37.39061
       ],
       [
        23.10006,
        37.38998
       ],
       [
        23.09817,
        37.39128
       ],
       [
        23.09669,
        37.39046
       ],
       [
        23.09362,
        37.39187
       ],
       [
        23.09297,
        37.39173
       ],
       [
        23.09303,
        37.39058
       ],
       [
        23.09181,
        37.39002
       ],
       [
        23.08984,
        37.3913
       ],
       [
        23.08927,
        37.39115
       ],
       [
        23.08898,
        37.38981
       ],
       [
        23.08969,
        37.38976
       ],
       [
        23.08908,
        37.38857
       ],
       [
        23.0875,
        37.38744
       ],
       [
        23.08519,
        37.38717
       ],
       [
        23.08458,
        37.38785
       ],
       [
        23.08073,
        37.38856
       ],
       [
        23.08122,
        37.38938
       ],
       [
        23.08085,
        37.38988
       ],
       [
        23.0799,
        37.38919
       ],
       [
        23.07783,
        37.38968
       ],
       [
        23.07707,
        37.39089
       ],
       [
        23.07841,
        37.39122
       ],
       [
        23.07727,
        37.39162
       ],
       [
        23.06553,
        37.39304
       ],
       [
        23.06481,
        37.39265
       ],
       [
        23.06533,
        37.39239
       ],
       [
        23.06288,
        37.39125
       ],
       [
        23.06499,
        37.39075
       ],
       [
        23.06482,
        37.38974
       ],
       [
        23.06646,
        37.38922
       ],
       [
        23.06724,
        37.38793
       ],
       [
        23.06673,
        37.3872
       ],
       [
        23.06862,
        37.38674
       ],
       [
        23.06879,
        37.38496
       ],
       [
        23.07064,
        37.3835
       ],
       [
        23.07136,
        37.38378
       ],
       [
        23.07181,
        37.38282
       ],
       [
        23.07085,
        37.3824
       ],
       [
        23.07118,
        37.3814
       ],
       [
        23.07294,
        37.38094
       ],
       [
        23.0719,
        37.38008
       ],
       [
        23.07363,
        37.3788
       ],
       [
        23.07188,
        37.37858
       ],
       [
        23.07197,
        37.37752
       ],
       [
        23.07408,
        37.37753
       ],
       [
        23.07447,
        37.37685
       ],
       [
        23.07346,
        37.37598
       ],
       [
        23.07396,
        37.37556
       ],
       [
        23.07369,
        37.37481
       ],
       [
        23.07425,
        37.37482
       ],
       [
        23.07398,
        37.37316
       ],
       [
        23.07245,
        37.3722
       ],
       [
        23.07094,
        37.37245
       ],
       [
        23.06911,
        37.37183
       ],
       [
        23.07392,
        37.37043
       ],
       [
        23.07318,
        37.36872
       ],
       [
        23.07444,
        37.36835
       ],
       [
        23.07262,
        37.36663
       ],
       [
        23.0749,
        37.36538
       ],
       [
        23.07476,
        37.36361
       ],
       [
        23.07295,
        37.36327
       ],
       [
        23.07431,
        37.36148
       ],
       [
        23.07215,
        37.36018
       ],
       [
        23.07076,
        37.36066
       ],
       [
        23.06863,
        37.35986
       ],
       [
        23.0677,
        37.358
       ],
       [
        23.06885,
        37.35788
       ],
       [
        23.06838,
        37.35697
       ],
       [
        23.06929,
        37.35616
       ],
       [
        23.06661,
        37.35443
       ],
       [
        23.06633,
        37.35396
       ],
       [
        23.06743,
        37.35315
       ],
       [
        23.06605,
        37.35209
       ],
       [
        23.06727,
        37.35121
       ],
       [
        23.0681,
        37.35235
       ],
       [
        23.07146,
        37.3519
       ],
       [
        23.07223,
        37.35268
       ],
       [
        23.07302,
        37.35129
       ],
       [
        23.07276,
        37.35043
       ],
       [
        23.07542,
        37.35096
       ],
       [
        23.07643,
        37.35196
       ],
       [
        23.07758,
        37.35083
       ],
       [
        23.07887,
        37.35165
       ],
       [
        23.08405,
        37.35104
       ],
       [
        23.08623,
        37.35258
       ],
       [
        23.08734,
        37.35262
       ],
       [
        23.08876,
        37.35163
       ],
       [
        23.09098,
        37.352
       ],
       [
        23.0914,
        37.35279
       ],
       [
        23.0936,
        37.35296
       ],
       [
        23.09419,
        37.35247
       ],
       [
        23.09571,
        37.35316
       ],
       [
        23.09762,
        37.35159
       ],
       [
        23.09761,
        37.3524
       ],
       [
        23.0982,
        37.35262
       ],
       [
        23.10009,
        37.35241
       ],
       [
        23.10055,
        37.35178
       ],
       [
        23.10125,
        37.35213
       ],
       [
        23.10161,
        37.35116
       ],
       [
        23.10292,
        37.35171
       ],
       [
        23.10353,
        37.35104
       ],
       [
        23.10497,
        37.35095
       ],
       [
        23.10493,
        37.35177
       ],
       [
        23.10637,
        37.35197
       ],
       [
        23.11089,
        37.3507
       ],
       [
        23.11314,
        37.3488
       ],
       [
        23.11529,
        37.34798
       ],
       [
        23.11637,
        37.3464
       ],
       [
        23.11755,
        37.34634
       ],
       [
        23.11911,
        37.34447
       ],
       [
        23.12115,
        37.34442
       ],
       [
        23.12493,
        37.34214
       ],
       [
        23.12567,
        37.33977
       ],
       [
        23.12531,
        37.33551
       ],
       [
        23.12601,
        37.33498
       ],
       [
        23.12552,
        37.33563
       ],
       [
        23.12654,
        37.33609
       ],
       [
        23.13301,
        37.33402
       ],
       [
        23.13597,
        37.33068
       ],
       [
        23.13595,
        37.32998
       ],
       [
        23.13777,
        37.32941
       ],
       [
        23.1391,
        37.32796
       ],
       [
        23.13822,
        37.32613
       ],
       [
        23.13706,
        37.32571
       ],
       [
        23.13484,
        37.32737
       ],
       [
        23.13097,
        37.32826
       ],
       [
        23.12972,
        37.32797
       ],
       [
        23.12188,
        37.33191
       ],
       [
        23.1238,
        37.33197
       ],
       [
        23.1209,
        37.33241
       ],
       [
        23.12059,
        37.33367
       ],
       [
        23.1183,
        37.33396
       ],
       [
        23.1171,
        37.33545
       ],
       [
        23.11549,
        37.33533
       ],
       [
        23.11562,
        37.33469
       ],
       [
        23.11447,
        37.33357
       ],
       [
        23.11514,
        37.33282
       ],
       [
        23.11428,
        37.33207
       ],
       [
        23.11222,
        37.3333
       ],
       [
        23.11034,
        37.33255
       ],
       [
        23.11294,
        37.33121
       ],
       [
        23.1115,
        37.32978
       ],
       [
        23.11471,
        37.32989
       ],
       [
        23.1141,
        37.32788
       ],
       [
        23.11666,
        37.3277
       ],
       [
        23.11563,
        37.32687
       ],
       [
        23.11606,
        37.32608
       ],
       [
        23.11471,
        37.3259
       ],
       [
        23.1141,
        37.32512
       ],
       [
        23.11491,
        37.3254
       ],
       [
        23.11558,
        37.32449
       ],
       [
        23.11734,
        37.3258
       ],
       [
        23.11781,
        37.32532
       ],
       [
        23.11765,
        37.32326
       ],
       [
        23.11923,
        37.3248
       ],
       [
        23.12121,
        37.32376
       ],
       [
        23.1217,
        37.32226
       ],
       [
        23.12052,
        37.32223
       ],
       [
        23.11789,
        37.32015
       ],
       [
        23.11916,
        37.31994
       ],
       [
        23.12087,
        37.32074
       ],
       [
        23.12082,
        37.3195
       ],
       [
        23.12233,
        37.32012
       ],
       [
        23.12321,
        37.31889
       ],
       [
        23.12414,
        37.31903
       ],
       [
        23.1245,
        37.32012
       ],
       [
        23.12531,
        37.32001
       ],
       [
        23.12601,
        37.31874
       ],
       [
        23.12533,
        37.31797
       ],
       [
        23.1266,
        37.31724
       ],
       [
        23.12643,
        37.31646
       ],
       [
        23.1247,
        37.31547
       ],
       [
        23.1265,
        37.31493
       ],
       [
        23.12725,
        37.31386
       ],
       [
        23.12793,
        37.31429
       ],
       [
        23.12874,
        37.31389
       ],
       [
        23.12871,
        37.31459
       ],
       [
        23.12764,
        37.31515
       ],
       [
        23.12833,
        37.3165
       ],
       [
        23.12777,
        37.31747
       ],
       [
        23.12838,
        37.31792
       ],
       [
        23.12965,
        37.31767
       ],
       [
        23.13097,
        37.31572
       ],
       [
        23.13235,
        37.31623
       ],
       [
        23.13413,
        37.31503
       ],
       [
        23.1352,
        37.31554
       ],
       [
        23.13544,
        37.31787
       ],
       [
        23.13925,
        37.31731
       ],
       [
        23.13934,
        37.31806
       ],
       [
        23.14225,
        37.31884
       ],
       [
        23.14083,
        37.3209
       ],
       [
        23.13925,
        37.32177
       ],
       [
        23.14067,
        37.32359
       ],
       [
        23.14287,
        37.32107
       ],
       [
        23.14451,
        37.32138
       ],
       [
        23.14406,
        37.32566
       ],
       [
        23.14468,
        37.32785
       ],
       [
        23.14761,
        37.32721
       ],
       [
        23.14978,
        37.32751
       ],
       [
        23.15418,
        37.32507
       ],
       [
        23.15607,
        37.32321
       ],
       [
        23.15757,
        37.32006
       ],
       [
        23.15613,
        37.31711
       ],
       [
        23.15345,
        37.31521
       ],
       [
        23.14893,
        37.31592
       ],
       [
        23.14614,
        37.31752
       ],
       [
        23.14543,
        37.31618
       ],
       [
        23.14574,
        37.31513
       ],
       [
        23.14279,
        37.31522
       ],
       [
        23.14499,
        37.31388
       ],
       [
        23.14494,
        37.31282
       ],
       [
        23.13942,
        37.31363
       ],
       [
        23.13937,
        37.3129
       ],
       [
        23.14131,
        37.31116
       ],
       [
        23.1396,
        37.31118
       ],
       [
        23.13917,
        37.31017
       ],
       [
        23.13754,
        37.31099
       ],
       [
        23.13647,
        37.30996
       ],
       [
        23.13695,
        37.30922
       ],
       [
        23.13622,
        37.30876
       ],
       [
        23.13792,
        37.30831
       ],
       [
        23.13834,
        37.30662
       ],
       [
        23.13962,
        37.30765
       ],
       [
        23.14134,
        37.30596
       ],
       [
        23.14219,
        37.30667
       ],
       [
        23.14484,
        37.30542
       ],
       [
        23.14475,
        37.304
       ],
       [
        23.14372,
        37.30325
       ],
       [
        23.14525,
        37.30269
       ],
       [
        23.14445,
        37.30166
       ],
       [
        23.1447,
        37.30047
       ],
       [
        23.14375,
        37.30002
       ],
       [
        23.14439,
        37.29966
       ],
       [
        23.14324,
        37.30071
       ],
       [
        23.14263,
        37.30039
       ],
       [
        23.14463,
        37.298
       ],
       [
        23.14553,
        37.29789
       ],
       [
        23.14567,
        37.29708
       ],
       [
        23.14766,
        37.29737
       ],
       [
        23.14759,
        37.29577
       ],
       [
        23.14916,
        37.29594
       ],
       [
        23.14945,
        37.29705
       ],
       [
        23.15079,
        37.29684
       ],
       [
        23.1513,
        37.29569
       ],
       [
        23.15296,
        37.29732
       ],
       [
        23.15436,
        37.29714
       ],
       [
        23.15465,
        37.29624
       ],
       [
        23.15569,
        37.29595
       ],
       [
        23.15449,
        37.29466
       ],
       [
        23.15522,
        37.29408
       ],
       [
        23.15447,
        37.29315
       ],
       [
        23.15698,
        37.29233
       ],
       [
        23.15665,
        37.29391
       ],
       [
        23.15728,
        37.29479
       ],
       [
        23.15842,
        37.29403
       ],
       [
        23.15922,
        37.29427
       ],
       [
        23.15897,
        37.29513
       ],
       [
        23.15959,
        37.29548
       ],
       [
        23.1623,
        37.29593
       ],
       [
        23.16413,
        37.29541
       ],
       [
        23.16453,
        37.29487
       ],
       [
        23.16381,
        37.2946
       ],
       [
        23.16438,
        37.29436
       ],
       [
        23.16362,
        37.29249
       ],
       [
        23.1656,
        37.29125
       ],
       [
        23.16456,
        37.28971
       ],
       [
        23.16592,
        37.28908
       ],
       [
        23.16584,
        37.28965
       ],
       [
        23.16711,
        37.28995
       ],
       [
        23.16804,
        37.28849
       ],
       [
        23.16891,
        37.28863
       ],
       [
        23.16921,
        37.28729
       ],
       [
        23.16794,
        37.28662
       ],
       [
        23.16905,
        37.28655
       ],
       [
        23.16944,
        37.2856
       ],
       [
        23.17056,
        37.2867
       ],
       [
        23.17294,
        37.28576
       ],
       [
        23.17482,
        37.28592
       ],
       [
        23.17608,
        37.28513
       ],
       [
        23.17642,
        37.28597
       ],
       [
        23.17507,
        37.28708
       ],
       [
        23.1771,
        37.28691
       ],
       [
        23.17751,
        37.28777
       ],
       [
        23.17857,
        37.28717
       ],
       [
        23.17903,
        37.28772
       ],
       [
        23.17956,
        37.28696
       ],
       [
        23.18189,
        37.2863
       ],
       [
        23.18128,
        37.28769
       ],
       [
        23.18073,
        37.28742
       ],
       [
        23.17943,
        37.28853
       ],
       [
        23.17982,
        37.28933
       ],
       [
        23.18151,
        37.28956
       ],
       [
        23.18082,
        37.29155
       ],
       [
        23.18138,
        37.29161
       ],
       [
        23.18144,
        37.29299
       ],
       [
        23.18084,
        37.29339
       ],
       [
        23.18113,
        37.29397
       ],
       [
        23.18172,
        37.29356
       ],
       [
        23.18139,
        37.29464
       ],
       [
        23.18272,
        37.29456
       ],
       [
        23.18412,
        37.29536
       ],
       [
        23.18544,
        37.29525
       ],
       [
        23.18544,
        37.29445
       ],
       [
        23.1861,
        37.29413
       ],
       [
        23.18805,
        37.29481
       ],
       [
        23.19035,
        37.29425
       ],
       [
        23.19202,
        37.29458
       ],
       [
        23.19346,
        37.29231
       ],
       [
        23.19365,
        37.29361
       ],
       [
        23.19451,
        37.29369
       ],
       [
        23.19534,
        37.292
       ],
       [
        23.19628,
        37.29165
       ],
       [
        23.19729,
        37.29259
       ],
       [
        23.19765,
        37.2914
       ],
       [
        23.19884,
        37.29153
       ],
       [
        23.19992,
        37.29075
       ],
       [
        23.19999,
        37.29183
       ],
       [
        23.20077,
        37.29179
       ],
       [
        23.19874,
        37.29321
       ],
       [
        23.20033,
        37.29344
       ],
       [
        23.2004,
        37.29298
       ],
       [
        23.19999,
        37.29458
       ],
       [
        23.20148,
        37.29563
       ],
       [
        23.20138,
        37.29629
       ],
       [
        23.20006,
        37.29651
       ],
       [
        23.20101,
        37.29806
       ],
       [
        23.20002,
        37.2993
       ],
       [
        23.20181,
        37.30056
       ],
       [
        23.19937,
        37.30192
       ],
       [
        23.19908,
        37.30275
       ],
       [
        23.19991,
        37.30386
       ],
       [
        23.20079,
        37.30385
       ],
       [
        23.20072,
        37.30294
       ],
       [
        23.20127,
        37.30327
       ],
       [
        23.20103,
        37.30486
       ],
       [
        23.19878,
        37.30568
       ],
       [
        23.19833,
        37.30792
       ],
       [
        23.1956,
        37.30839
       ],
       [
        23.19489,
        37.30983
       ],
       [
        23.19576,
        37.31084
       ],
       [
        23.1952,
        37.31158
       ],
       [
        23.19261,
        37.31173
       ],
       [
        23.19378,
        37.31332
       ],
       [
        23.1925,
        37.31406
       ],
       [
        23.19231,
        37.31522
       ],
       [
        23.18915,
        37.31741
       ],
       [
        23.18778,
        37.31728
       ],
       [
        23.18767,
        37.31834
       ],
       [
        23.18676,
        37.31802
       ],
       [
        23.18494,
        37.31865
       ],
       [
        23.1835,
        37.32029
       ],
       [
        23.18096,
        37.32059
       ],
       [
        23.17991,
        37.32135
       ],
       [
        23.17956,
        37.32256
       ],
       [
        23.17951,
        37.32303
       ],
       [
        23.18007,
        37.32297
       ],
       [
        23.17947,
        37.32368
       ],
       [
        23.17995,
        37.32698
       ],
       [
        23.18309,
        37.33292
       ],
       [
        23.18837,
        37.33796
       ],
       [
        23.19335,
        37.34117
       ],
       [
        23.19679,
        37.34153
       ],
       [
        23.19781,
        37.34103
       ],
       [
        23.1997,
        37.34201
       ],
       [
        23.20249,
        37.34192
       ],
       [
        23.20337,
        37.34097
       ],
       [
        23.20257,
        37.34043
       ],
       [
        23.20438,
        37.33972
       ],
       [
        23.20506,
        37.34052
       ],
       [
        23.20931,
        37.34205
       ],
       [
        23.21382,
        37.3427
       ],
       [
        23.2168,
        37.34424
       ],
       [
        23.22295,
        37.34408
       ],
       [
        23.22296,
        37.34573
       ],
       [
        23.22376,
        37.34601
       ],
       [
        23.22458,
        37.34583
       ],
       [
        23.22484,
        37.34468
       ],
       [
        23.22665,
        37.34462
       ],
       [
        23.227,
        37.3456
       ],
       [
        23.22758,
        37.34443
       ],
       [
        23.22968,
        37.34447
       ],
       [
        23.22982,
        37.34541
       ],
       [
        23.22926,
        37.34567
       ],
       [
        23.23023,
        37.34689
       ],
       [
        23.23157,
        37.34637
       ],
       [
        23.2313,
        37.34493
       ],
       [
        23.23214,
        37.34473
       ],
       [
        23.23276,
        37.34483
       ],
       [
        23.23228,
        37.34583
       ],
       [
        23.23301,
        37.34655
       ],
       [
        23.23437,
        37.34596
       ],
       [
        23.23413,
        37.34489
       ],
       [
        23.23529,
        37.34523
       ],
       [
        23.23545,
        37.34584
       ],
       [
        23.23671,
        37.34525
       ],
       [
        23.23733,
        37.34611
       ],
       [
        23.23963,
        37.34519
       ],
       [
        23.24079,
        37.34543
       ],
       [
        23.2412,
        37.34508
       ],
       [
        23.24081,
        37.3447
       ],
       [
        23.24149,
        37.34453
       ],
       [
        23.24134,
        37.34517
       ],
       [
        23.2425,
        37.34569
       ],
       [
        23.24396,
        37.34596
       ],
       [
        23.24438,
        37.3455
       ],
       [
        23.24446,
        37.34613
       ],
       [
        23.24593,
        37.34629
       ],
       [
        23.24888,
        37.34454
       ],
       [
        23.25031,
        37.34496
       ],
       [
        23.25211,
        37.34412
       ],
       [
        23.25276,
        37.34438
       ],
       [
        23.25389,
        37.3428
       ],
       [
        23.25703,
        37.34255
       ],
       [
        23.25867,
        37.34335
       ],
       [
        23.26146,
        37.34239
       ],
       [
        23.26543,
        37.34219
       ],
       [
        23.27323,
        37.34431
       ],
       [
        23.27678,
        37.34668
       ],
       [
        23.27616,
        37.34777
       ],
       [
        23.27799,
        37.34923
       ],
       [
        23.2733,
        37.34995
       ],
       [
        23.27313,
        37.35067
       ],
       [
        23.26986,
        37.35233
       ],
       [
        23.27004,
        37.35313
       ],
       [
        23.2689,
        37.3542
       ],
       [
        23.26589,
        37.35588
       ],
       [
        23.26338,
        37.35591
       ],
       [
        23.2617,
        37.3552
       ],
       [
        23.25557,
        37.35564
       ],
       [
        23.25316,
        37.35499
       ],
       [
        23.2501,
        37.35308
       ],
       [
        23.24691,
        37.35516
       ],
       [
        23.2455,
        37.35966
       ],
       [
        23.24877,
        37.36142
       ],
       [
        23.24848,
        37.36239
       ],
       [
        23.25069,
        37.36292
       ],
       [
        23.25371,
        37.36587
       ],
       [
        23.25605,
        37.36562
       ],
       [
        23.25823,
        37.36623
       ],
       [
        23.25852,
        37.36678
       ],
       [
        23.25766,
        37.36761
       ],
       [
        23.25344,
        37.3664
       ],
       [
        23.25189,
        37.36693
       ],
       [
        23.24572,
        37.36586
       ],
       [
        23.2427,
        37.36719
       ],
       [
        23.24376,
        37.36803
       ],
       [
        23.24226,
        37.37013
       ],
       [
        23.24133,
        37.37048
       ],
       [
        23.23858,
        37.3695
       ],
       [
        23.23538,
        37.36719
       ],
       [
        23.23475,
        37.36491
       ],
       [
        23.23509,
        37.36372
       ],
       [
        23.23385,
        37.36281
       ],
       [
        23.23178,
        37.36279
       ],
       [
        23.2314,
        37.36359
       ],
       [
        23.22981,
        37.36411
       ],
       [
        23.22905,
        37.36467
       ],
       [
        23.2317,
        37.36362
       ],
       [
        23.23319,
        37.36391
       ],
       [
        23.23083,
        37.36464
       ],
       [
        23.22809,
        37.36658
       ],
       [
        23.22603,
        37.3697
       ],
       [
        23.22469,
        37.37381
       ],
       [
        23.2248,
        37.37889
       ],
       [
        23.22715,
        37.382
       ],
       [
        23.23092,
        37.3833
       ],
       [
        23.233,
        37.3831
       ],
       [
        23.2344,
        37.38423
       ],
       [
        23.24156,
        37.38351
       ],
       [
        23.24693,
        37.38391
       ],
       [
        23.24917,
        37.38251
       ],
       [
        23.25121,
        37.38299
       ],
       [
        23.25531,
        37.38262
       ],
       [
        23.25957,
        37.38377
       ],
       [
        23.26048,
        37.38461
       ],
       [
        23.25822,
        37.38549
       ],
       [
        23.25347,
        37.38395
       ],
       [
        23.24961,
        37.38519
       ],
       [
        23.24966,
        37.3861
       ],
       [
        23.25018,
        37.38606
       ],
       [
        23.24842,
        37.38563
       ],
       [
        23.24877,
        37.38622
       ],
       [
        23.24776,
        37.38606
       ],
       [
        23.24734,
        37.38718
       ],
       [
        23.24918,
        37.38723
       ],
       [
        23.24729,
        37.38754
       ],
       [
        23.25019,
        37.39057
       ],
       [
        23.25413,
        37.38764
       ],
       [
        23.25599,
        37.38796
       ],
       [
        23.25841,
        37.38959
       ],
       [
        23.25842,
        37.38908
       ],
       [
        23.25963,
        37.38908
       ],
       [
        23.2613,
        37.38987
       ],
       [
        23.26137,
        37.39064
       ],
       [
        23.25831,
        37.39357
       ],
       [
        23.25924,
        37.39644
       ],
       [
        23.26026,
        37.39709
       ],
       [
        23.26182,
        37.39659
       ],
       [
        23.26258,
        37.3975
       ],
       [
        23.26047,
        37.39858
       ],
       [
        23.26006,
        37.40038
       ],
       [
        23.26121,
        37.4015
       ],
       [
        23.26333,
        37.40221
       ],
       [
        23.26591,
        37.40501
       ],
       [
        23.26882,
        37.40658
       ],
       [
        23.27234,
        37.40685
       ],
       [
        23.27924,
        37.40512
       ],
       [
        23.28252,
        37.40307
       ],
       [
        23.2815,
        37.39916
       ],
       [
        23.28226,
        37.39793
       ],
       [
        23.28311,
        37.39787
       ],
       [
        23.28402,
        37.3989
       ],
       [
        23.28463,
        37.39714
       ],
       [
        23.28576,
        37.39651
       ],
       [
        23.29227,
        37.39457
       ],
       [
        23.29342,
        37.39489
       ],
       [
        23.29577,
        37.3936
       ],
       [
        23.29841,
        37.39464
       ],
       [
        23.30135,
        37.39442
       ],
       [
        23.30421,
        37.3959
       ],
       [
        23.30545,
        37.39557
       ],
       [
        23.30606,
        37.39413
       ],
       [
        23.30971,
        37.39333
       ],
       [
        23.31092,
        37.39578
       ],
       [
        23.30887,
        37.39827
       ],
       [
        23.31051,
        37.40233
       ],
       [
        23.3156,
        37.40402
       ],
       [
        23.31841,
        37.4031
       ]
      ]
     ],
     [
      [
       [
        23.14032,
        37.30047
       ],
       [
        23.14185,
        37.30207
       ],
       [
        23.14108,
        37.30331
       ],
       [
        23.13905,
        37.30179
       ],
       [
        23.13753,
        37.30338
       ],
       [
        23.13705,
        37.30241
       ],
       [
        23.13578,
        37.30184
       ],
       [
        23.13667,
        37.30066
       ],
       [
        23.13764,
        37.30175
       ],
       [
        23.14032,
        37.30047
       ]
      ]
     ],
     [
      [
       [
        23.06362,
        37.35877
       ],
       [
        23.06565,
        37.35897
       ],
       [
        23.06533,
        37.36039
       ],
       [
        23.06778,
        37.36106
       ],
       [
        23.06774,
        37.36201
       ],
       [
        23.06313,
        37.36131
       ],
       [
        23.06272,
        37.35981
       ],
       [
        23.06362,
        37.35877
       ]
      ]
     ]
    ]
   }
  },
  {
   "type": "Feature",
   "properties": {
    "@id": "node/1221172611",
    "archaeological_site": "settlement",
    "historic": "archaeological_site",
    "name": "Σπήλαιο Φράχθι",
    "name:en": "Franchthi Cave",
    "wikidata": "Q1441331",
    "wikipedia": "en:Franchthi Cave"
   },
   "geometry": {
    "type": "Point",
    "coordinates": [
     23.13112,
     37.42249
    ]
   }
  }
 ]
}
