{
 "type": "FeatureCollection",
 "copyright": "The data included in this document is from www.openstreetmap.org. The data is made available under ODbL.",
 "note": "Overpass export, tags reduced, rings simplified (Douglas-Peucker, tolerance 0.0004 deg) and rounded to 5 decimals.",
 "features": [
  {
   "type": "Feature",
   "properties": {
    "@id": "relation/318248",
    "admin_level": "6",
    "boundary": "administrative",
    "name": "Märkisch-Oderland",
    "name:de": "Märkisch-Oderland",
    "name:pl": "powiat Märkisch-Oderland",
    "type": "boundary",
    "wikidata": "Q6181",
    "wikipedia": "de:Landkreis Märkisch-Oderland"
   },
   "geometry": {
    "type": "Polygon",
    "coordinates": [
     [
      [
       13.71733,
       52.5894
      ],
      [
       13.7148,
       52.58723
      ],
      [
       13.70854,
       52.58927
      ],
      [
       13.69818,
       52.59038
      ],
      [
       13.69918,
       52.58956
      ],
      [
       13.69834,
       52.58917
      ],
      [
       13.69972,
       52.58796
      ],
      [
       13.69938,
       52.58658
      ],
      [
       13.69649,
       52.58295
      ],
      [
       13.69359,
       52.58236
      ],
      [
       13.69303,
       52.58274
      ],
      [
       13.69173,
       52.57951
      ],
      [
       13.68455,
       52.57988
      ],
      [
       13.68455,
       52.57868
      ],
      [
       13.68266,
       52.57842
      ],
      [
       13.67956,
       52.57908
      ],
      [
       13.67188,
       52.58232
      ],
      [
       13.67209,
       52.57786
      ],
      [
       13.68596,
       52.57686
      ],
      [
       13.6851,
       52.56927
      ],
      [
       13.67565,
       52.56906
      ],
      [
       13.67575,
       52.56704
      ],
      [
       13.67405,
       52.56715
      ],
      [
       13.6735,
       52.56582
      ],
      [
       13.66893,
       52.56653
      ],
      [
       13.66865,
       52.56605
      ],
      [
       13.66531,
       52.56718
      ],
      [
       13.66454,
       52.56237
      ],
      [
       13.65829,
       52.56156
      ],
      [
       13.65687,
       52.56241
      ],
      [
       13.65864,
       52.56906
      ],
      [
       13.64386,
       52.56948
      ],
      [
       13.61664,
       52.56124
      ],
      [
       13.61552,
       52.56159
      ],
      [
       13.61071,
       52.55146
      ],
      [
       13.6106,
       52.54557
      ],
      [
       13.63738,
       52.54226
      ],
      [
       13.63765,
       52.54092
      ],
      [
       13.63395,
       52.53765
      ],
      [
       13.62886,
       52.53798
      ],
      [
       13.62754,
       52.53748
      ],
      [
       13.62483,
       52.5381
      ],
      [
       13.62574,
       52.53404
      ],
      [
       13.62481,
       52.53358
      ],
      [
       13.62569,
       52.53018
      ],
      [
       13.63156,
       52.53057
      ],
      [
       13.64064,
       52.53043
      ],
      [
       13.64625,
       52.52968
      ],
      [
       13.65691,
       52.52984
      ],
      [
       13.6585,
       52.52595
      ],
      [
       13.64246,
       52.51855
      ],
      [
       13.63578,
       52.51422
      ],
      [
       13.63316,
       52.51173
      ],
      [
       13.6292,
       52.50613
      ],
      [
       13.62677,
       52.49908
      ],
      [
       13.62401,
       52.4942
      ],
      [
       13.62971,
       52.49304
      ],
      [
       13.61489,
       52.48076
      ],
      [
       13.61355,
       52.47562
      ],
      [
       13.61649,
       52.47483
      ],
      [
       13.61137,
       52.47065
      ],
      [
       13.61507,
       52.46972
      ],
      [
       13.61712,
       52.47121
      ],
      [
       13.62117,
       52.47046
      ],
      [
       13.62094,
       52.46849
      ],
      [
       13.62201,
       52.46803
      ],
      [
       13.62138,
       52.46664
      ],
      [
       13.62276,
       52.46645
      ],
      [
       13.62337,
       52.46671
      ],
      [
       13.62261,
       52.46806
      ],
      [
       13.6229,
       52.46878
      ],
      [
       13.62521,
       52.46875
      ],
      [
       13.62471,
       52.46906
      ],
      [
       13.62534,
       52.4737
      ],
      [
       13.62818,
       52.47355
      ],
      [
       13.64322,
       52.47922
      ],
      [
       13.64831,
       52.47873
      ],
      [
       13.66265,
       52.47376
      ],
      [
       13.66724,
       52.47429
      ],
      [
       13.66812,
       52.47847
      ],
      [
       13.67229,
       52.48601
      ],
      [
       13.67618,
       52.49036
      ],
      [
       13.67829,
       52.49394
      ],
      [
       13.68909,
       52.50088
      ],
      [
       13.71299,
       52.50078
      ],
      [
       13.7165,
       52.49685
      ],
      [
       13.71175,
       52.49474
      ],
      [
       13.71159,
       52.49348
      ],
      [
       13.7223,
       52.49004
      ],
      [
       13.73691,
       52.48753
      ],
      [
       13.74188,
       52.48586
      ],
      [
       13.74063,
       52.46742
      ],
      [
       13.74388,
       52.46673
      ],
      [
       13.74339,
       52.46537
      ],
      [
       13.74821,
       52.46672
      ],
      [
       13.75071,
       52.46643
      ],
      [
       13.75626,
       52.46711
      ],
      [
       13.75928,
       52.466
      ],
      [
       13.7661,
       52.46614
      ],
      [
       13.76845,
       52.46695
      ],
      [
       13.76913,
       52.466
      ],
      [
       13.77064,
       52.46546
      ],
      [
       13.77388,
       52.46618
      ],
      [
       13.77514,
       52.46565
      ],
      [
       13.77396,
       52.46349
      ],
      [
       13.77139,
       52.46285
      ],
      [
       13.76753,
       52.45965
      ],
      [
       13.7655,
       52.45966
      ],
      [
       13.76237,
       52.45795
      ],
      [
       13.76222,
       52.45604
      ],
      [
       13.76511,
       52.45347
      ],
      [
       13.76371,
       52.44673
      ],
      [
       13.76497,
       52.44421
      ],
      [
       13.76419,
       52.4463
      ],
      [
       13.76481,
       52.44789
      ],
      [
       13.76526,
       52.44784
      ],
      [
       13.76479,
       52.44667
      ],
      [
       13.80198,
       52.44392
      ],
      [
       13.8015,
       52.44202
      ],
      [
       13.79951,
       52.43947
      ],
      [
       13.82469,
       52.43744
      ],
      [
       13.82518,
       52.4401
      ],
      [
       13.85227,
       52.45796
      ],
      [
       13.85405,
       52.45776
      ],
      [
       13.85284,
       52.45188
      ],
      [
       13.85895,
       52.4515
      ],
      [
       13.87101,
       52.45218
      ],
      [
       13.87274,
       52.45551
      ],
      [
       13.88005,
       52.457
      ],
      [
       13.88204,
       52.46333
      ],
      [
       13.88687,
       52.46827
      ],
      [
       13.89363,
       52.46777
      ],
      [
       13.8943,
       52.46968
      ],
      [
       13.89664,
       52.47038
      ],
      [
       13.89757,
       52.47227
      ],
      [
       13.89964,
       52.47357
      ],
      [
       13.8992,
       52.47408
      ],
      [
       13.91579,
       52.47514
      ],
      [
       13.92564,
       52.47419
      ],
      [
       13.92733,
       52.47307
      ],
      [
       13.93626,
       52.47569
      ],
      [
       13.93773,
       52.47409
      ],
      [
       13.94497,
       52.4766
      ],
      [
       13.94326,
       52.47844
      ],
      [
       13.94411,
       52.47875
      ],
      [
       13.94583,
       52.47689
      ],
      [
       13.9472,
       52.47737
      ],
      [
       13.94797,
       52.47645
      ],
      [
       13.95123,
       52.47583
      ],
      [
       13.95235,
       52.47443
      ],
      [
       13.95373,
       52.47398
      ],
      [
       13.95316,
       52.47384
      ],
      [
       13.95315,
       52.47301
      ],
      [
       13.95972,
       52.47187
      ],
      [
       13.9602,
       52.47106
      ],
      [
       13.95943,
       52.46918
      ],
      [
       13.95981,
       52.46826
      ],
      [
       13.96451,
       52.465
      ],
      [
       13.97032,
       52.46772
      ],
      [
       13.97655,
       52.46627
      ],
      [
       13.9771,
       52.46645
      ],
      [
       13.97753,
       52.46843
      ],
      [
       13.9802,
       52.46794
      ],
      [
       13.98224,
       52.46632
      ],
      [
       13.98629,
       52.46565
      ],
      [
       13.98869,
       52.46315
      ],
      [
       13.99666,
       52.46466
      ],
      [
       13.99601,
       52.46196
      ],
      [
       13.99253,
       52.4617
      ],
      [
       13.99267,
       52.45569
      ],
      [
       14.00719,
       52.44659
      ],
      [
       14.0198,
       52.45652
      ],
      [
       14.02121,
       52.45894
      ],
      [
       14.02231,
       52.46433
      ],
      [
       14.02453,
       52.46534
      ],
      [
       14.02612,
       52.46742
      ],
      [
       14.02647,
       52.46886
      ],
      [
       14.02599,
       52.46894
      ],
      [
       14.02863,
       52.47101
      ],
      [
       14.0418,
       52.47404
      ],
      [
       14.04944,
       52.47655
      ],
      [
       14.07392,
       52.48066
      ],
      [
       14.07387,
       52.47955
      ],
      [
       14.07764,
       52.47454
      ],
      [
       14.08122,
       52.46762
      ],
      [
       14.08249,
       52.46573
      ],
      [
       14.0839,
       52.46535
      ],
      [
       14.08286,
       52.46076
      ],
      [
       14.08111,
       52.45815
      ],
      [
       14.08052,
       52.4584
      ],
      [
       14.0779,
       52.45406
      ],
      [
       14.0758,
       52.45264
      ],
      [
       14.08893,
       52.44992
      ],
      [
       14.09059,
       52.45452
      ],
      [
       14.09666,
       52.45402
      ],
      [
       14.09846,
       52.46273
      ],
      [
       14.11107,
       52.46012
      ],
      [
       14.11764,
       52.45955
      ],
      [
       14.1222,
       52.46045
      ],
      [
       14.12175,
       52.46189
      ],
      [
       14.12239,
       52.46212
      ],
      [
       14.13552,
       52.46607
      ],
      [
       14.14245,
       52.46633
      ],
      [
       14.14813,
       52.46578
      ],
      [
       14.15944,
       52.46741
      ],
      [
       14.1652,
       52.4674
      ],
      [
       14.16755,
       52.46669
      ],
      [
       14.17714,
       52.46929
      ],
      [
       14.18154,
       52.4724
      ],
      [
       14.18368,
       52.47548
      ],
      [
       14.18247,
       52.47644
      ],
      [
       14.18266,
       52.48017
      ],
      [
       14.1819,
       52.48316
      ],
      [
       14.18244,
       52.48926
      ],
      [
       14.18454,
       52.49382
      ],
      [
       14.18843,
       52.49875
      ],
      [
       14.19526,
       52.49729
      ],
      [
       14.19901,
       52.49762
      ],
      [
       14.20579,
       52.49693
      ],
      [
       14.21489,
       52.49521
      ],
      [
       14.22796,
       52.49104
      ],
      [
       14.23729,
       52.48178
      ],
      [
       14.24504,
       52.47805
      ],
      [
       14.25117,
       52.47167
      ],
      [
       14.25484,
       52.46936
      ],
      [
       14.26105,
       52.46649
      ],
      [
       14.27538,
       52.46284
      ],
      [
       14.27308,
       52.45897
      ],
      [
       14.2729,
       52.45119
      ],
      [
       14.27089,
       52.44916
      ],
      [
       14.2714,
       52.44838
      ],
      [
       14.27608,
       52.44675
      ],
      [
       14.27713,
       52.44568
      ],
      [
       14.28087,
       52.4392
      ],
      [
       14.28319,
       52.43347
      ],
      [
       14.2849,
       52.42492
      ],
      [
       14.27786,
       52.4209
      ],
      [
       14.27774,
       52.41964
      ],
      [
       14.27897,
       52.41265
      ],
      [
       14.28146,
       52.409
      ],
      [
       14.30206,
       52.40371
      ],
      [
       14.32751,
       52.40284
      ],
      [
       14.32334,
       52.39837
      ],
      [
       14.32381,
       52.39728
      ],
      [
       14.32258,
       52.39643
      ],
      [
       14.3219,
       52.39309
      ],
      [
       14.3205,
       52.39215
      ],
      [
       14.32048,
       52.39046
      ],
      [
       14.31583,
       52.3859
      ],
      [
       14.31397,
       52.38342
      ],
      [
       14.31416,
       52.382
      ],
      [
       14.31655,
       52.38221
      ],
      [
       14.32821,
       52.37902
      ],
      [
       14.32899,
       52.37877
      ],
      [
       14.32894,
       52.37779
      ],
      [
       14.33749,
       52.37729
      ],
      [
       14.34928,
       52.37415
      ],
      [
       14.35526,
       52.38138
      ],
      [
       14.36191,
       52.38588
      ],
      [
       14.3707,
       52.38754
      ],
      [
       14.37095,
       52.38673
      ],
      [
       14.37567,
       52.38733
      ],
      [
       14.37758,
       52.38607
      ],
      [
       14.38649,
       52.38376
      ],
      [
       14.39311,
       52.38118
      ],
      [
       14.40102,
       52.37944
      ],
      [
       14.4123,
       52.37557
      ],
      [
       14.4239,
       52.37394
      ],
      [
       14.42739,
       52.38129
      ],
      [
       14.42903,
       52.38986
      ],
      [
       14.43098,
       52.3942
      ],
      [
       14.44026,
       52.39592
      ],
      [
       14.44799,
       52.39653
      ],
      [
       14.45421,
       52.39821
      ],
      [
       14.47509,
       52.39788
      ],
      [
       14.4755,
       52.39538
      ],
      [
       14.48074,
       52.39616
      ],
      [
       14.48069,
       52.39748
      ],
      [
       14.48832,
       52.39599
      ],
      [
       14.48816,
       52.39533
      ],
      [
       14.48887,
       52.39519
      ],
      [
       14.48891,
       52.39567
      ],
      [
       14.49979,
       52.39411
      ],
      [
       14.50066,
       52.39347
      ],
      [
       14.511,
       52.39189
      ],
      [
       14.51134,
       52.39094
      ],
      [
       14.5124,
       52.39112
      ],
      [
       14.51223,
       52.39174
      ],
      [
       14.51681,
       52.39214
      ],
      [
       14.52934,
       52.3924
      ],
      [
       14.5295,
       52.39413
      ],
      [
       14.53438,
       52.395
      ],
      [
       14.53435,
       52.39771
      ],
      [
       14.53553,
       52.40073
      ],
      [
       14.53782,
       52.40378
      ],
      [
       14.5459,
       52.41121
      ],
      [
       14.54653,
       52.41269
      ],
      [
       14.54686,
       52.41583
      ],
      [
       14.54421,
       52.42161
      ],
      [
       14.54396,
       52.42551
      ],
      [
       14.54575,
       52.4293
      ],
      [
       14.54812,
       52.43234
      ],
      [
       14.55167,
       52.43527
      ],
      [
       14.55946,
       52.43909
      ],
      [
       14.56733,
       52.44022
      ],
      [
       14.57447,
       52.44018
      ],
      [
       14.57883,
       52.44157
      ],
      [
       14.58562,
       52.44855
      ],
      [
       14.59398,
       52.45255
      ],
      [
       14.59999,
       52.45907
      ],
      [
       14.60876,
       52.46383
      ],
      [
       14.61048,
       52.46611
      ],
      [
       14.61208,
       52.4758
      ],
      [
       14.61282,
       52.47683
      ],
      [
       14.61614,
       52.47894
      ],
      [
       14.62299,
       52.48149
      ],
      [
       14.62631,
       52.48382
      ],
      [
       14.63222,
       52.48924
      ],
      [
       14.63482,
       52.4931
      ],
      [
       14.63527,
       52.49476
      ],
      [
       14.63506,
       52.49741
      ],
      [
       14.63434,
       52.49867
      ],
      [
       14.62993,
       52.5032
      ],
      [
       14.62407,
       52.50595
      ],
      [
       14.61705,
       52.50737
      ],
      [
       14.6123,
       52.51079
      ],
      [
       14.61132,
       52.51226
      ],
      [
       14.61049,
       52.51884
      ],
      [
       14.60545,
       52.5266
      ],
      [
       14.60384,
       52.53103
      ],
      [
       14.60488,
       52.53507
      ],
      [
       14.60633,
       52.53741
      ],
      [
       14.61142,
       52.54175
      ],
      [
       14.61367,
       52.54472
      ],
      [
       14.61538,
       52.55406
      ],
      [
       14.6169,
       52.55582
      ],
      [
       14.6229,
       52.5595
      ],
      [
       14.63748,
       52.56653
      ],
      [
       14.63951,
       52.56919
      ],
      [
       14.63955,
       52.57192
      ],
      [
       14.63819,
       52.57439
      ],
      [
       14.63654,
       52.57569
      ],
      [
       14.62265,
       52.58131
      ],
      [
       14.61429,
       52.58626
      ],
      [
       14.61147,
       52.58954
      ],
      [
       14.60941,
       52.598
      ],
      [
       14.59964,
       52.60809
      ],
      [
       14.59621,
       52.61064
      ],
      [
       14.58165,
       52.6156
      ],
      [
       14.57207,
       52.62183
      ],
      [
       14.56732,
       52.62369
      ],
      [
       14.55499,
       52.62619
      ],
      [
       14.54668,
       52.62992
      ],
      [
       14.53996,
       52.63128
      ],
      [
       14.53674,
       52.63358
      ],
      [
       14.53369,
       52.63381
      ],
      [
       14.52749,
       52.63716
      ],
      [
       14.52011,
       52.639
      ],
      [
       14.51703,
       52.63903
      ],
      [
       14.50968,
       52.64161
      ],
      [
       14.5086,
       52.64275
      ],
      [
       14.50528,
       52.64336
      ],
      [
       14.49979,
       52.64686
      ],
      [
       14.48699,
       52.65246
      ],
      [
       14.4831,
       52.65335
      ],
      [
       14.48079,
       52.65478
      ],
      [
       14.47938,
       52.65455
      ],
      [
       14.47368,
       52.65786
      ],
      [
       14.47115,
       52.65782
      ],
      [
       14.47006,
       52.65838
      ],
      [
       14.46898,
       52.65986
      ],
      [
       14.4651,
       52.66132
      ],
      [
       14.46165,
       52.66412
      ],
      [
       14.45928,
       52.66872
      ],
      [
       14.45875,
       52.67259
      ],
      [
       14.45529,
       52.6758
      ],
      [
       14.45006,
       52.67842
      ],
      [
       14.44539,
       52.67853
      ],
      [
       14.43856,
       52.68023
      ],
      [
       14.43555,
       52.68004
      ],
      [
       14.43268,
       52.68168
      ],
      [
       14.4291,
       52.68641
      ],
      [
       14.42855,
       52.68885
      ],
      [
       14.42899,
       52.69065
      ],
      [
       14.42399,
       52.69618
      ],
      [
       14.41349,
       52.70083
      ],
      [
       14.40905,
       52.70565
      ],
      [
       14.40732,
       52.70891
      ],
      [
       14.40489,
       52.71139
      ],
      [
       14.40052,
       52.71366
      ],
      [
       14.39848,
       52.71524
      ],
      [
       14.39769,
       52.71689
      ],
      [
       14.39167,
       52.71963
      ],
      [
       14.39051,
       52.72133
      ],
      [
       14.38372,
       52.72562
      ],
      [
       14.3815,
       52.72837
      ],
      [
       14.38146,
       52.7292
      ],
      [
       14.37581,
       52.73371
      ],
      [
       14.37349,
       52.73666
      ],
      [
       14.37076,
       52.73782
      ],
      [
       14.36424,
       52.739
      ],
      [
       14.36088,
       52.74062
      ],
      [
       14.35521,
       52.74576
      ],
      [
       14.35486,
       52.74757
      ],
      [
       14.35247,
       52.7507
      ],
      [
       14.34633,
       52.75322
      ],
      [
       14.3389,
       52.75471
      ],
      [
       14.33323,
       52.75701
      ],
      [
       14.33081,
       52.7593
      ],
      [
       14.32759,
       52.76004
      ],
      [
       14.32169,
       52.76264
      ],
      [
       14.31823,
       52.7634
      ],
      [
       14.31555,
       52.76326
      ],
      [
       14.30499,
       52.76551
      ],
      [
       14.29424,
       52.76904
      ],
      [
       14.29217,
       52.7703
      ],
      [
       14.28605,
       52.77156
      ],
      [
       14.28356,
       52.77342
      ],
      [
       14.27881,
       52.77446
      ],
      [
       14.27233,
       52.77819
      ],
      [
       14.26961,
       52.78093
      ],
      [
       14.26467,
       52.78263
      ],
      [
       14.25947,
       52.78661
      ],
      [
       14.25368,
       52.7891
      ],
      [
       14.25026,
       52.79199
      ],
      [
       14.24564,
       52.79473
      ],
      [
       14.2439,
       52.79786
      ],
      [
       14.2409,
       52.80014
      ],
      [
       14.23635,
       52.80115
      ],
      [
       14.23008,
       52.80502
      ],
      [
       14.22654,
       52.81029
      ],
      [
       14.22482,
       52.81113
      ],
      [
       14.22255,
       52.8139
      ],
      [
       14.21749,
       52.81687
      ],
      [
       14.2064,
       52.81935
      ],
      [
       14.19651,
       52.81922
      ],
      [
       14.19276,
       52.82006
      ],
      [
       14.18414,
       52.82032
      ],
      [
       14.17538,
       52.82153
      ],
      [
       14.16865,
       52.8214
      ],
      [
       14.16236,
       52.82289
      ],
      [
       14.15891,
       52.82263
      ],
      [
       14.15166,
       52.8242
      ],
      [
       14.14703,
       52.82439
      ],
      [
       14.14422,
       52.82366
      ],
      [
       14.13924,
       52.82476
      ],
      [
       14.13559,
       52.82662
      ],
      [
       14.13322,
       52.82665
      ],
      [
       14.1306,
       52.82792
      ],
      [
       14.12745,
       52.83181
      ],
      [
       14.12501,
       52.8331
      ],
      [
       14.12376,
       52.83521
      ],
      [
       14.12291,
       52.83749
      ],
      [
       14.12299,
       52.84403
      ],
      [
       14.12985,
       52.85273
      ],
      [
       14.13337,
       52.85453
      ],
      [
       14.13751,
       52.85802
      ],
      [
       14.13965,
       52.86096
      ],
      [
       14.14847,
       52.86599
      ],
      [
       14.15782,
       52.87483
      ],
      [
       14.15876,
       52.8771
      ],
      [
       14.15829,
       52.88152
      ],
      [
       14.16161,
       52.88812
      ],
      [
       14.15602,
       52.89605
      ],
      [
       14.1519,
       52.89447
      ],
      [
       14.14897,
       52.89416
      ],
      [
       14.14148,
       52.89127
      ],
      [
       14.13155,
       52.88959
      ],
      [
       14.12928,
       52.898
      ],
      [
       14.12711,
       52.90294
      ],
      [
       14.12554,
       52.90267
      ],
      [
       14.12521,
       52.90338
      ],
      [
       14.11798,
       52.90291
      ],
      [
       14.11634,
       52.90218
      ],
      [
       14.11063,
       52.9026
      ],
      [
       14.10323,
       52.90196
      ],
      [
       14.09535,
       52.90275
      ],
      [
       14.09289,
       52.89745
      ],
      [
       14.08951,
       52.89569
      ],
      [
       14.09023,
       52.89533
      ],
      [
       14.08882,
       52.8954
      ],
      [
       14.08496,
       52.89256
      ],
      [
       14.08541,
       52.89233
      ],
      [
       14.08116,
       52.89091
      ],
      [
       14.08074,
       52.89272
      ],
      [
       14.07829,
       52.89361
      ],
      [
       14.07977,
       52.89704
      ],
      [
       14.07867,
       52.89817
      ],
      [
       14.08109,
       52.89919
      ],
      [
       14.07895,
       52.90079
      ],
      [
       14.07468,
       52.90038
      ],
      [
       14.06989,
       52.89605
      ],
      [
       14.06436,
       52.8887
      ],
      [
       14.06477,
       52.88802
      ],
      [
       14.06285,
       52.88541
      ],
      [
       14.05986,
       52.88594
      ],
      [
       14.05884,
       52.88431
      ],
      [
       14.05746,
       52.88436
      ],
      [
       14.05763,
       52.88267
      ],
      [
       14.05904,
       52.88245
      ],
      [
       14.06076,
       52.87971
      ],
      [
       14.06115,
       52.87988
      ],
      [
       14.06098,
       52.87783
      ],
      [
       14.05809,
       52.87711
      ],
      [
       14.06009,
       52.87277
      ],
      [
       14.05874,
       52.8725
      ],
      [
       14.06138,
       52.86909
      ],
      [
       14.0661,
       52.86983
      ],
      [
       14.06644,
       52.87136
      ],
      [
       14.07795,
       52.87327
      ],
      [
       14.08095,
       52.87324
      ],
      [
       14.08123,
       52.87139
      ],
      [
       14.08756,
       52.87135
      ],
      [
       14.08586,
       52.87067
      ],
      [
       14.08659,
       52.86827
      ],
      [
       14.09319,
       52.86953
      ],
      [
       14.10633,
       52.86927
      ],
      [
       14.10621,
       52.86843
      ],
      [
       14.09703,
       52.86842
      ],
      [
       14.09445,
       52.86524
      ],
      [
       14.0945,
       52.86046
      ],
      [
       14.09511,
       52.85868
      ],
      [
       14.09448,
       52.85851
      ],
      [
       14.09551,
       52.8573
      ],
      [
       14.09539,
       52.85606
      ],
      [
       14.08986,
       52.85642
      ],
      [
       14.08836,
       52.85713
      ],
      [
       14.08406,
       52.8565
      ],
      [
       14.08047,
       52.85756
      ],
      [
       14.07888,
       52.85535
      ],
      [
       14.06835,
       52.85285
      ],
      [
       14.06307,
       52.85519
      ],
      [
       14.0525,
       52.85524
      ],
      [
       14.04838,
       52.85441
      ],
      [
       14.03889,
       52.84994
      ],
      [
       14.03572,
       52.85007
      ],
      [
       14.03428,
       52.84933
      ],
      [
       14.03179,
       52.8502
      ],
      [
       14.02777,
       52.84833
      ],
      [
       14.02071,
       52.84665
      ],
      [
       14.02036,
       52.84697
      ],
      [
       14.02185,
       52.84768
      ],
      [
       14.02007,
       52.85188
      ],
      [
       14.02295,
       52.85405
      ],
      [
       14.02163,
       52.85445
      ],
      [
       14.01988,
       52.85382
      ],
      [
       14.02063,
       52.85493
      ],
      [
       14.0198,
       52.85539
      ],
      [
       14.0198,
       52.85637
      ],
      [
       14.01813,
       52.85569
      ],
      [
       14.0163,
       52.85612
      ],
      [
       14.01604,
       52.85513
      ],
      [
       14.01463,
       52.85475
      ],
      [
       14.01583,
       52.85378
      ],
      [
       14.01593,
       52.85293
      ],
      [
       14.01701,
       52.85304
      ],
      [
       14.01605,
       52.8526
      ],
      [
       14.0093,
       52.85247
      ],
      [
       14.00582,
       52.85446
      ],
      [
       14.00641,
       52.85498
      ],
      [
       14.00487,
       52.85433
      ],
      [
       14.00617,
       52.85518
      ],
      [
       14.00129,
       52.85489
      ],
      [
       14.00041,
       52.85532
      ],
      [
       13.99919,
       52.85476
      ],
      [
       14.00088,
       52.85561
      ],
      [
       13.99957,
       52.85637
      ],
      [
       14.00423,
       52.85748
      ],
      [
       14.00394,
       52.8586
      ],
      [
       14.00532,
       52.85883
      ],
      [
       14.00482,
       52.85948
      ],
      [
       14.00109,
       52.85737
      ],
      [
       13.99753,
       52.85654
      ],
      [
       13.99394,
       52.85338
      ],
      [
       13.98496,
       52.85055
      ],
      [
       13.98263,
       52.84861
      ],
      [
       13.98097,
       52.84606
      ],
      [
       13.981,
       52.84444
      ],
      [
       13.97799,
       52.84232
      ],
      [
       13.97933,
       52.84124
      ],
      [
       13.97964,
       52.839
      ],
      [
       13.97781,
       52.83625
      ],
      [
       13.97865,
       52.83341
      ],
      [
       13.97776,
       52.83248
      ],
      [
       13.97715,
       52.8302
      ],
      [
       13.97546,
       52.82984
      ],
      [
       13.97555,
       52.82854
      ],
      [
       13.97459,
       52.82751
      ],
      [
       13.97565,
       52.82583
      ],
      [
       13.97513,
       52.8252
      ],
      [
       13.97008,
       52.8253
      ],
      [
       13.96587,
       52.82414
      ],
      [
       13.9645,
       52.82573
      ],
      [
       13.96289,
       52.82569
      ],
      [
       13.96028,
       52.82736
      ],
      [
       13.95552,
       52.82799
      ],
      [
       13.9543,
       52.8277
      ],
      [
       13.95486,
       52.82575
      ],
      [
       13.93944,
       52.82456
      ],
      [
       13.94122,
       52.82187
      ],
      [
       13.94122,
       52.82084
      ],
      [
       13.94007,
       52.82301
      ],
      [
       13.93891,
       52.82415
      ],
      [
       13.938,
       52.82417
      ],
      [
       13.93706,
       52.82281
      ],
      [
       13.93823,
       52.82335
      ],
      [
       13.93953,
       52.82133
      ],
      [
       13.9405,
       52.82161
      ],
      [
       13.93996,
       52.82064
      ],
      [
       13.94148,
       52.81912
      ],
      [
       13.93811,
       52.81799
      ],
      [
       13.93938,
       52.81725
      ],
      [
       13.94068,
       52.81461
      ],
      [
       13.93695,
       52.81377
      ],
      [
       13.93753,
       52.81322
      ],
      [
       13.9363,
       52.81283
      ],
      [
       13.9359,
       52.81205
      ],
      [
       13.93868,
       52.81165
      ],
      [
       13.9404,
       52.81051
      ],
      [
       13.94073,
       52.80794
      ],
      [
       13.93972,
       52.80715
      ],
      [
       13.9359,
       52.80643
      ],
      [
       13.93067,
       52.80101
      ],
      [
       13.92423,
       52.79564
      ],
      [
       13.92137,
       52.79449
      ],
      [
       13.91225,
       52.79428
      ],
      [
       13.90247,
       52.79207
      ],
      [
       13.90316,
       52.78939
      ],
      [
       13.86333,
       52.78772
      ],
      [
       13.86388,
       52.78475
      ],
      [
       13.86351,
       52.78235
      ],
      [
       13.8669,
       52.78211
      ],
      [
       13.86701,
       52.78084
      ],
      [
       13.87207,
       52.7796
      ],
      [
       13.8764,
       52.77936
      ],
      [
       13.8742,
       52.77509
      ],
      [
       13.87201,
       52.77517
      ],
      [
       13.87108,
       52.77177
      ],
      [
       13.86286,
       52.77198
      ],
      [
       13.86266,
       52.76207
      ],
      [
       13.86321,
       52.76095
      ],
      [
       13.86257,
       52.76003
      ],
      [
       13.86098,
       52.75997
      ],
      [
       13.86173,
       52.75864
      ],
      [
       13.83981,
       52.75569
      ],
      [
       13.83136,
       52.75399
      ],
      [
       13.81733,
       52.74888
      ],
      [
       13.81142,
       52.7477
      ],
      [
       13.81141,
       52.74705
      ],
      [
       13.80203,
       52.7454
      ],
      [
       13.8011,
       52.74462
      ],
      [
       13.7968,
       52.74476
      ],
      [
       13.79377,
       52.74602
      ],
      [
       13.79458,
       52.74729
      ],
      [
       13.79283,
       52.74922
      ],
      [
       13.78423,
       52.74684
      ],
      [
       13.78038,
       52.74652
      ],
      [
       13.77687,
       52.74522
      ],
      [
       13.76961,
       52.74401
      ],
      [
       13.76404,
       52.74386
      ],
      [
       13.75367,
       52.74097
      ],
      [
       13.73838,
       52.73483
      ],
      [
       13.72948,
       52.73353
      ],
      [
       13.73069,
       52.73267
      ],
      [
       13.73229,
       52.73321
      ],
      [
       13.73695,
       52.72971
      ],
      [
       13.7403,
       52.72845
      ],
      [
       13.74524,
       52.72808
      ],
      [
       13.74732,
       52.72969
      ],
      [
       13.74955,
       52.72794
      ],
      [
       13.74674,
       52.72624
      ],
      [
       13.75159,
       52.72397
      ],
      [
       13.75922,
       52.71631
      ],
      [
       13.75456,
       52.71366
      ],
      [
       13.76077,
       52.70185
      ],
      [
       13.76179,
       52.69859
      ],
      [
       13.77203,
       52.67953
      ],
      [
       13.77324,
       52.67883
      ],
      [
       13.77333,
       52.67693
      ],
      [
       13.77597,
       52.67488
      ],
      [
       13.78009,
       52.66676
      ],
      [
       13.79206,
       52.67039
      ],
      [
       13.80117,
       52.67431
      ],
      [
       13.80159,
       52.67404
      ],
      [
       13.8046,
       52.67641
      ],
      [
       13.80605,
       52.67982
      ],
      [
       13.81442,
       52.67808
      ],
      [
       13.82669,
       52.68517
      ],
      [
       13.83493,
       52.68884
      ],
      [
       13.83187,
       52.69138
      ],
      [
       13.83603,
       52.69065
      ],
      [
       13.83597,
       52.68936
      ],
      [
       13.83639,
       52.69222
      ],
      [
       13.84271,
       52.69129
      ],
      [
       13.85117,
       52.69381
      ],
      [
       13.85005,
       52.69224
      ],
      [
       13.85102,
       52.69063
      ],
      [
       13.84937,
       52.69012
      ],
      [
       13.84839,
       52.68906
      ],
      [
       13.85877,
       52.68444
      ],
      [
       13.85587,
       52.68248
      ],
      [
       13.85456,
       52.68248
      ],
      [
       13.85251,
       52.68134
      ],
      [
       13.85028,
       52.67944
      ],
      [
       13.85303,
       52.67808
      ],
      [
       13.85175,
       52.67712
      ],
      [
       13.85074,
       52.67462
      ],
      [
       13.85109,
       52.67189
      ],
      [
       13.85051,
       52.67065
      ],
      [
       13.84952,
       52.67063
      ],
      [
       13.84869,
       52.66827
      ],
      [
       13.84937,
       52.66399
      ],
      [
       13.84826,
       52.66119
      ],
      [
       13.84824,
       52.65916
      ],
      [
       13.84418,
       52.6562
      ],
      [
       13.83886,
       52.65358
      ],
      [
       13.83772,
       52.65184
      ],
      [
       13.83972,
       52.64897
      ],
      [
       13.84549,
       52.64761
      ],
      [
       13.84388,
       52.645
      ],
      [
       13.8327,
       52.63687
      ],
      [
       13.83187,
       52.63238
      ],
      [
       13.83382,
       52.63046
      ],
      [
       13.83353,
       52.62961
      ],
      [
       13.82995,
       52.62735
      ],
      [
       13.82799,
       52.62478
      ],
      [
       13.82429,
       52.6253
      ],
      [
       13.81938,
       52.62797
      ],
      [
       13.81416,
       52.62664
      ],
      [
       13.80552,
       52.62611
      ],
      [
       13.79441,
       52.62395
      ],
      [
       13.78142,
       52.6233
      ],
      [
       13.74858,
       52.61674
      ],
      [
       13.74221,
       52.61408
      ],
      [
       13.73501,
       52.61257
      ],
      [
       13.72948,
       52.61238
      ],
      [
       13.72807,
       52.6015
      ],
      [
       13.71541,
       52.60228
      ],
      [
       13.71612,
       52.60389
      ],
      [
       13.71588,
       52.60602
      ],
      [
       13.71527,
       52.60609
      ],
      [
       13.71554,
       52.6042
      ],
      [
       13.71428,
       52.60134
      ],
      [
       13.71264,
       52.59977
      ],
      [
       13.71254,
       52.59866
      ],
      [
       13.71692,
       52.59417
      ],
      [
       13.71733,
       52.5894
      ]
     ]
    ]
   }
  },
  {
   "type": "Feature",
   "properties": {
    "@id": "relation/1332928",
    "admin_level": "8",
    "boundary": "administrative",
    "name": "Seelow",
    "type": "boundary",
    "wikidata": "Q587069",
    "wikipedia": "de:Seelow"
   },
   "geometry": {
    "type": "Polygon",
    "coordinates": [
     [
      [
       14.34622,
       52.52898
      ],
      [
       14.35138,
       52.52401
      ],
      [
       14.3532,
       52.52139
      ],
      [
       14.3541,
       52.52158
      ],
      [
       14.35471,
       52.52067
      ],
      [
       14.36153,
       52.52293
      ],
      [
       14.36178,
       52.52241
      ],
      [
       14.3629,
       52.52254
      ],
      [
       14.36294,
       52.51668
      ],
      [
       14.36228,
       52.51434
      ],
      [
       14.36494,
       52.51351
      ],
      [
       14.37137,
       52.51257
      ],
      [
       14.37911,
       52.5129
      ],
      [
       14.39207,
       52.51616
      ],
      [
       14.39739,
       52.51907
      ],
      [
       14.39888,
       52.52172
      ],
      [
       14.40342,
       52.52466
      ],
      [
       14.4028,
       52.52511
      ],
      [
       14.40583,
       52.52493
      ],
      [
       14.41287,
       52.52719
      ],
      [
       14.41075,
       52.52993
      ],
      [
       14.43284,
       52.53599
      ],
      [
       14.43753,
       52.53831
      ],
      [
       14.44061,
       52.53878
      ],
      [
       14.4419,
       52.53749
      ],
      [
       14.45131,
       52.53878
      ],
      [
       14.44923,
       52.54388
      ],
      [
       14.45102,
       52.5484
      ],
      [
       14.45022,
       52.54961
      ],
      [
       14.44639,
       52.54965
      ],
      [
       14.44187,
       52.55473
      ],
      [
       14.44407,
       52.55566
      ],
      [
       14.44983,
       52.55554
      ],
      [
       14.44868,
       52.56275
      ],
      [
       14.44266,
       52.56246
      ],
      [
       14.44245,
       52.56384
      ],
      [
       14.46255,
       52.56636
      ],
      [
       14.46449,
       52.56499
      ],
      [
       14.45827,
       52.5694
      ],
      [
       14.47036,
       52.57419
      ],
      [
       14.46127,
       52.57978
      ],
      [
       14.45769,
       52.57763
      ],
      [
       14.45415,
       52.5768
      ],
      [
       14.45332,
       52.57744
      ],
      [
       14.44961,
       52.57757
      ],
      [
       14.449,
       52.57824
      ],
      [
       14.44673,
       52.57851
      ],
      [
       14.44645,
       52.5791
      ],
      [
       14.44731,
       52.58015
      ],
      [
       14.44585,
       52.5813
      ],
      [
       14.44617,
       52.58169
      ],
      [
       14.43576,
       52.58191
      ],
      [
       14.43662,
       52.58686
      ],
      [
       14.43562,
       52.58809
      ],
      [
       14.43243,
       52.58364
      ],
      [
       14.43183,
       52.58365
      ],
      [
       14.42795,
       52.58507
      ],
      [
       14.42928,
       52.58679
      ],
      [
       14.42149,
       52.58886
      ],
      [
       14.41945,
       52.59062
      ],
      [
       14.41565,
       52.59198
      ],
      [
       14.41631,
       52.59263
      ],
      [
       14.41304,
       52.59509
      ],
      [
       14.40948,
       52.5931
      ],
      [
       14.40602,
       52.5894
      ],
      [
       14.39248,
       52.59275
      ],
      [
       14.393,
       52.58794
      ],
      [
       14.39166,
       52.58538
      ],
      [
       14.39024,
       52.58483
      ],
      [
       14.38935,
       52.58313
      ],
      [
       14.39041,
       52.58232
      ],
      [
       14.39071,
       52.58042
      ],
      [
       14.38953,
       52.57952
      ],
      [
       14.38751,
       52.57917
      ],
      [
       14.38634,
       52.57788
      ],
      [
       14.38503,
       52.57792
      ],
      [
       14.38381,
       52.57916
      ],
      [
       14.37926,
       52.57726
      ],
      [
       14.37926,
       52.57631
      ],
      [
       14.37807,
       52.57613
      ],
      [
       14.37155,
       52.57165
      ],
      [
       14.36829,
       52.56698
      ],
      [
       14.36627,
       52.56214
      ],
      [
       14.36562,
       52.56207
      ],
      [
       14.36396,
       52.55553
      ],
      [
       14.3671,
       52.55074
      ],
      [
       14.35714,
       52.54843
      ],
      [
       14.33758,
       52.54795
      ],
      [
       14.33818,
       52.54512
      ],
      [
       14.34059,
       52.53973
      ],
      [
       14.34622,
       52.52898
      ]
     ]
    ]
   }
  }
 ]
}
