{
 "type": "FeatureCollection",
 "copyright": "The data included in this document is from www.openstreetmap.org. The data is made available under ODbL.",
 "note": "Overpass export, tags reduced, rings simplified (Douglas-Peucker, tolerance 0.0004 deg) and rounded to 5 decimals.",
 "features": [
  {
   "type": "Feature",
   "properties": {
    "@id": "relation/451517",
    "admin_level": "6",
    "boundary": "administrative",
    "name": "powiat wrocławski",
    "name:de": "Landkreis Breslau",
    "name:en": "Wrocław County",
    "name:pl": "powiat wrocławski",
    "population": "158755",
    "type": "boundary",
    "wikidata": "Q715974",
    "wikipedia": "pl:Powiat wrocławski"
   },
   "geometry": {
    "type": "Polygon",
    "coordinates": [
     [
      [
       17.13096,
       51.17888
      ],
      [
       17.13124,
       51.17988
      ],
      [
       17.13285,
       51.18027
      ],
      [
       17.14261,
       51.18039
      ],
      [
       17.14377,
       51.17955
      ],
      [
       17.14207,
       51.17859
      ],
      [
       17.14172,
       51.1771
      ],
      [
       17.14464,
       51.17859
      ],
      [
       17.15094,
       51.17721
      ],
      [
       17.15221,
       51.17819
      ],
      [
       17.15495,
       51.17851
      ],
      [
       17.15729,
       51.17847
      ],
      [
       17.15858,
       51.17759
      ],
      [
       17.15729,
       51.17765
      ],
      [
       17.15608,
       51.17536
      ],
      [
       17.15357,
       51.16216
      ],
      [
       17.15485,
       51.16182
      ],
      [
       17.15216,
       51.15963
      ],
      [
       17.15294,
       51.15171
      ],
      [
       17.15059,
       51.14483
      ],
      [
       17.14114,
       51.13137
      ],
      [
       17.14075,
       51.13089
      ],
      [
       17.13944,
       51.13136
      ],
      [
       17.13688,
       51.12783
      ],
      [
       17.14051,
       51.12502
      ],
      [
       17.1429,
       51.1247
      ],
      [
       17.14451,
       51.12372
      ],
      [
       17.14412,
       51.1231
      ],
      [
       17.14466,
       51.12286
      ],
      [
       17.15008,
       51.12358
      ],
      [
       17.15068,
       51.12247
      ],
      [
       17.15206,
       51.12213
      ],
      [
       17.15601,
       51.11925
      ],
      [
       17.16086,
       51.1182
      ],
      [
       17.16425,
       51.11607
      ],
      [
       17.16608,
       51.1126
      ],
      [
       17.17211,
       51.11154
      ],
      [
       17.17622,
       51.10632
      ],
      [
       17.16913,
       51.10066
      ],
      [
       17.17167,
       51.09714
      ],
      [
       17.17137,
       51.09594
      ],
      [
       17.16479,
       51.09668
      ],
      [
       17.16518,
       51.09573
      ],
      [
       17.16181,
       51.09272
      ],
      [
       17.16012,
       51.09446
      ],
      [
       17.15925,
       51.09227
      ],
      [
       17.1622,
       51.08876
      ],
      [
       17.15786,
       51.08783
      ],
      [
       17.15032,
       51.08177
      ],
      [
       17.14852,
       51.08116
      ],
      [
       17.14729,
       51.08326
      ],
      [
       17.13956,
       51.08096
      ],
      [
       17.13229,
       51.08067
      ],
      [
       17.12982,
       51.07933
      ],
      [
       17.12704,
       51.08172
      ],
      [
       17.124,
       51.08162
      ],
      [
       17.12037,
       51.08312
      ],
      [
       17.11844,
       51.0817
      ],
      [
       17.11978,
       51.08124
      ],
      [
       17.11935,
       51.08099
      ],
      [
       17.11739,
       51.08077
      ],
      [
       17.11715,
       51.08004
      ],
      [
       17.11141,
       51.07923
      ],
      [
       17.11054,
       51.07728
      ],
      [
       17.1083,
       51.07543
      ],
      [
       17.10962,
       51.0743
      ],
      [
       17.10474,
       51.07008
      ],
      [
       17.10341,
       51.06723
      ],
      [
       17.10058,
       51.06625
      ],
      [
       17.10136,
       51.0651
      ],
      [
       17.09873,
       51.06384
      ],
      [
       17.10138,
       51.0613
      ],
      [
       17.09576,
       51.05935
      ],
      [
       17.09864,
       51.05682
      ],
      [
       17.10179,
       51.05551
      ],
      [
       17.10354,
       51.05353
      ],
      [
       17.10593,
       51.05247
      ],
      [
       17.10723,
       51.05086
      ],
      [
       17.10486,
       51.04816
      ],
      [
       17.10339,
       51.04529
      ],
      [
       17.09117,
       51.04558
      ],
      [
       17.08552,
       51.04675
      ],
      [
       17.07867,
       51.05047
      ],
      [
       17.0765,
       51.05379
      ],
      [
       17.07424,
       51.05404
      ],
      [
       17.07195,
       51.05882
      ],
      [
       17.06822,
       51.05912
      ],
      [
       17.06519,
       51.05899
      ],
      [
       17.06629,
       51.05516
      ],
      [
       17.06579,
       51.05026
      ],
      [
       17.06202,
       51.04989
      ],
      [
       17.05999,
       51.04863
      ],
      [
       17.06095,
       51.04523
      ],
      [
       17.05209,
       51.04612
      ],
      [
       17.05081,
       51.04438
      ],
      [
       17.03862,
       51.04889
      ],
      [
       17.03126,
       51.05007
      ],
      [
       17.02875,
       51.04401
      ],
      [
       17.02911,
       51.04278
      ],
      [
       17.02787,
       51.04268
      ],
      [
       17.02042,
       51.04494
      ],
      [
       17.00989,
       51.04652
      ],
      [
       17.01025,
       51.05119
      ],
      [
       17.01188,
       51.05423
      ],
      [
       17.00873,
       51.05512
      ],
      [
       17.00525,
       51.05569
      ],
      [
       17.00222,
       51.05143
      ],
      [
       16.99976,
       51.04925
      ],
      [
       16.99219,
       51.05156
      ],
      [
       16.99289,
       51.05576
      ],
      [
       16.99088,
       51.05774
      ],
      [
       16.99084,
       51.05669
      ],
      [
       16.9897,
       51.05569
      ],
      [
       16.98705,
       51.05516
      ],
      [
       16.98691,
       51.05364
      ],
      [
       16.98329,
       51.05393
      ],
      [
       16.97998,
       51.05315
      ],
      [
       16.97505,
       51.05395
      ],
      [
       16.97169,
       51.05541
      ],
      [
       16.96638,
       51.04919
      ],
      [
       16.96448,
       51.04957
      ],
      [
       16.959,
       51.05396
      ],
      [
       16.95845,
       51.05623
      ],
      [
       16.95514,
       51.05875
      ],
      [
       16.95521,
       51.06079
      ],
      [
       16.95814,
       51.06738
      ],
      [
       16.95331,
       51.06879
      ],
      [
       16.95316,
       51.06986
      ],
      [
       16.9495,
       51.07101
      ],
      [
       16.9471,
       51.0731
      ],
      [
       16.94311,
       51.07435
      ],
      [
       16.94374,
       51.07487
      ],
      [
       16.93937,
       51.07679
      ],
      [
       16.9388,
       51.08085
      ],
      [
       16.93787,
       51.082
      ],
      [
       16.92575,
       51.08108
      ],
      [
       16.92289,
       51.07969
      ],
      [
       16.91715,
       51.08107
      ],
      [
       16.91918,
       51.08161
      ],
      [
       16.92299,
       51.09225
      ],
      [
       16.92292,
       51.09776
      ],
      [
       16.90369,
       51.09691
      ],
      [
       16.89745,
       51.09842
      ],
      [
       16.88971,
       51.09901
      ],
      [
       16.88891,
       51.0981
      ],
      [
       16.88756,
       51.09788
      ],
      [
       16.8884,
       51.09713
      ],
      [
       16.88843,
       51.09549
      ],
      [
       16.88735,
       51.09344
      ],
      [
       16.87681,
       51.09449
      ],
      [
       16.85903,
       51.10028
      ],
      [
       16.85395,
       51.10721
      ],
      [
       16.85825,
       51.11211
      ],
      [
       16.85712,
       51.11219
      ],
      [
       16.85692,
       51.11126
      ],
      [
       16.85458,
       51.11094
      ],
      [
       16.85195,
       51.10926
      ],
      [
       16.84339,
       51.11105
      ],
      [
       16.83815,
       51.11019
      ],
      [
       16.83467,
       51.11167
      ],
      [
       16.83367,
       51.11149
      ],
      [
       16.83337,
       51.11264
      ],
      [
       16.8328,
       51.11174
      ],
      [
       16.83081,
       51.11205
      ],
      [
       16.8309,
       51.11145
      ],
      [
       16.82964,
       51.11043
      ],
      [
       16.82582,
       51.1102
      ],
      [
       16.82539,
       51.10942
      ],
      [
       16.82361,
       51.10877
      ],
      [
       16.82391,
       51.10776
      ],
      [
       16.82061,
       51.10694
      ],
      [
       16.81925,
       51.10582
      ],
      [
       16.82174,
       51.1026
      ],
      [
       16.82371,
       51.10274
      ],
      [
       16.82442,
       51.10201
      ],
      [
       16.82233,
       51.1003
      ],
      [
       16.81998,
       51.10006
      ],
      [
       16.81272,
       51.09443
      ],
      [
       16.80893,
       51.09271
      ],
      [
       16.79831,
       51.09591
      ],
      [
       16.79864,
       51.09633
      ],
      [
       16.79453,
       51.09776
      ],
      [
       16.79691,
       51.10003
      ],
      [
       16.79387,
       51.09991
      ],
      [
       16.79194,
       51.10134
      ],
      [
       16.78909,
       51.10056
      ],
      [
       16.78689,
       51.10222
      ],
      [
       16.78422,
       51.10217
      ],
      [
       16.76134,
       51.088
      ],
      [
       16.75309,
       51.08872
      ],
      [
       16.75357,
       51.08423
      ],
      [
       16.7497,
       51.07739
      ],
      [
       16.76112,
       51.0761
      ],
      [
       16.76301,
       51.07667
      ],
      [
       16.76522,
       51.07569
      ],
      [
       16.76812,
       51.07677
      ],
      [
       16.76886,
       51.0755
      ],
      [
       16.76796,
       51.0756
      ],
      [
       16.76715,
       51.07411
      ],
      [
       16.76694,
       51.07361
      ],
      [
       16.76766,
       51.07341
      ],
      [
       16.76681,
       51.07107
      ],
      [
       16.76402,
       51.06944
      ],
      [
       16.76394,
       51.06766
      ],
      [
       16.76296,
       51.06682
      ],
      [
       16.76284,
       51.06548
      ],
      [
       16.76141,
       51.06575
      ],
      [
       16.76036,
       51.06449
      ],
      [
       16.76184,
       51.06338
      ],
      [
       16.76201,
       51.05872
      ],
      [
       16.7594,
       51.05663
      ],
      [
       16.75794,
       51.05451
      ],
      [
       16.75502,
       51.05634
      ],
      [
       16.74201,
       51.06168
      ],
      [
       16.7386,
       51.06416
      ],
      [
       16.72869,
       51.06444
      ],
      [
       16.7253,
       51.06363
      ],
      [
       16.72105,
       51.06137
      ],
      [
       16.71991,
       51.06002
      ],
      [
       16.71679,
       51.05307
      ],
      [
       16.71395,
       51.04919
      ],
      [
       16.71375,
       51.04776
      ],
      [
       16.71806,
       51.04562
      ],
      [
       16.72005,
       51.0426
      ],
      [
       16.72234,
       51.04107
      ],
      [
       16.72041,
       51.03891
      ],
      [
       16.71941,
       51.03866
      ],
      [
       16.7191,
       51.03759
      ],
      [
       16.7157,
       51.03708
      ],
      [
       16.7146,
       51.03567
      ],
      [
       16.71018,
       51.03294
      ],
      [
       16.70614,
       51.0322
      ],
      [
       16.70531,
       51.03142
      ],
      [
       16.70353,
       51.03219
      ],
      [
       16.68888,
       51.03165
      ],
      [
       16.68515,
       51.02934
      ],
      [
       16.68262,
       51.02316
      ],
      [
       16.68361,
       51.02178
      ],
      [
       16.68273,
       51.02069
      ],
      [
       16.68264,
       51.01899
      ],
      [
       16.68312,
       51.01775
      ],
      [
       16.68451,
       51.01667
      ],
      [
       16.68416,
       51.01588
      ],
      [
       16.68025,
       51.01649
      ],
      [
       16.67984,
       51.01584
      ],
      [
       16.67506,
       51.01825
      ],
      [
       16.6695,
       51.01843
      ],
      [
       16.66575,
       51.01941
      ],
      [
       16.66099,
       51.01933
      ],
      [
       16.6585,
       51.0185
      ],
      [
       16.65528,
       51.0129
      ],
      [
       16.65812,
       51.01228
      ],
      [
       16.65498,
       51.01026
      ],
      [
       16.65209,
       51.0108
      ],
      [
       16.65072,
       51.00834
      ],
      [
       16.6456,
       51.00703
      ],
      [
       16.63739,
       51.00727
      ],
      [
       16.63257,
       51.00603
      ],
      [
       16.63092,
       51.00758
      ],
      [
       16.62135,
       51.01293
      ],
      [
       16.60817,
       51.00969
      ],
      [
       16.60851,
       51.00808
      ],
      [
       16.60747,
       51.00595
      ],
      [
       16.60391,
       51.00141
      ],
      [
       16.60257,
       51.00177
      ],
      [
       16.60288,
       51.00109
      ],
      [
       16.60473,
       51.00122
      ],
      [
       16.60528,
       51.00014
      ],
      [
       16.60649,
       50.99991
      ],
      [
       16.6068,
       50.99844
      ],
      [
       16.60897,
       50.99786
      ],
      [
       16.61039,
       50.99678
      ],
      [
       16.61028,
       50.99611
      ],
      [
       16.61176,
       50.99623
      ],
      [
       16.61482,
       50.99517
      ],
      [
       16.61558,
       50.99557
      ],
      [
       16.61597,
       50.99474
      ],
      [
       16.61735,
       50.99449
      ],
      [
       16.61791,
       50.99159
      ],
      [
       16.61623,
       50.99115
      ],
      [
       16.61521,
       50.98894
      ],
      [
       16.63008,
       50.98142
      ],
      [
       16.63025,
       50.98034
      ],
      [
       16.62725,
       50.97922
      ],
      [
       16.62634,
       50.98018
      ],
      [
       16.61498,
       50.97948
      ],
      [
       16.61702,
       50.97472
      ],
      [
       16.60934,
       50.97442
      ],
      [
       16.60541,
       50.97336
      ],
      [
       16.60541,
       50.97401
      ],
      [
       16.60337,
       50.97514
      ],
      [
       16.60138,
       50.97525
      ],
      [
       16.60114,
       50.97872
      ],
      [
       16.59682,
       50.98026
      ],
      [
       16.58839,
       50.97933
      ],
      [
       16.58803,
       50.97786
      ],
      [
       16.58551,
       50.97808
      ],
      [
       16.58387,
       50.97634
      ],
      [
       16.58156,
       50.97547
      ],
      [
       16.58458,
       50.9728
      ],
      [
       16.58429,
       50.97132
      ],
      [
       16.58549,
       50.96905
      ],
      [
       16.5871,
       50.96837
      ],
      [
       16.58691,
       50.96771
      ],
      [
       16.58584,
       50.96762
      ],
      [
       16.59048,
       50.96093
      ],
      [
       16.59049,
       50.95838
      ],
      [
       16.58665,
       50.95701
      ],
      [
       16.58575,
       50.95589
      ],
      [
       16.58422,
       50.94925
      ],
      [
       16.57977,
       50.94983
      ],
      [
       16.57942,
       50.94855
      ],
      [
       16.5772,
       50.95003
      ],
      [
       16.56609,
       50.95141
      ],
      [
       16.57143,
       50.93992
      ],
      [
       16.57558,
       50.93976
      ],
      [
       16.57467,
       50.93672
      ],
      [
       16.57941,
       50.93607
      ],
      [
       16.57987,
       50.93742
      ],
      [
       16.58312,
       50.937
      ],
      [
       16.58312,
       50.93497
      ],
      [
       16.58176,
       50.93489
      ],
      [
       16.58284,
       50.93483
      ],
      [
       16.58308,
       50.93428
      ],
      [
       16.58079,
       50.93462
      ],
      [
       16.57995,
       50.9341
      ],
      [
       16.58125,
       50.9331
      ],
      [
       16.57666,
       50.93283
      ],
      [
       16.57634,
       50.93162
      ],
      [
       16.57925,
       50.93026
      ],
      [
       16.57667,
       50.9262
      ],
      [
       16.57592,
       50.92334
      ],
      [
       16.57292,
       50.92339
      ],
      [
       16.57287,
       50.92286
      ],
      [
       16.57416,
       50.92115
      ],
      [
       16.57572,
       50.9206
      ],
      [
       16.57575,
       50.91994
      ],
      [
       16.58094,
       50.91909
      ],
      [
       16.58129,
       50.91778
      ],
      [
       16.59051,
       50.91741
      ],
      [
       16.59098,
       50.9159
      ],
      [
       16.59211,
       50.91572
      ],
      [
       16.59205,
       50.91518
      ],
      [
       16.60217,
       50.91943
      ],
      [
       16.60128,
       50.92178
      ],
      [
       16.60587,
       50.92392
      ],
      [
       16.61668,
       50.92249
      ],
      [
       16.61796,
       50.92825
      ],
      [
       16.62641,
       50.92666
      ],
      [
       16.63322,
       50.92391
      ],
      [
       16.64261,
       50.92268
      ],
      [
       16.64455,
       50.92281
      ],
      [
       16.64514,
       50.9242
      ],
      [
       16.64613,
       50.92437
      ],
      [
       16.65321,
       50.92401
      ],
      [
       16.65094,
       50.93272
      ],
      [
       16.67061,
       50.935
      ],
      [
       16.6732,
       50.93481
      ],
      [
       16.67368,
       50.93556
      ],
      [
       16.67164,
       50.93789
      ],
      [
       16.69023,
       50.93938
      ],
      [
       16.69239,
       50.93666
      ],
      [
       16.68905,
       50.93415
      ],
      [
       16.7005,
       50.9337
      ],
      [
       16.7017,
       50.92987
      ],
      [
       16.6914,
       50.92371
      ],
      [
       16.67985,
       50.92108
      ],
      [
       16.67497,
       50.91703
      ],
      [
       16.67624,
       50.91594
      ],
      [
       16.68071,
       50.9174
      ],
      [
       16.6834,
       50.91755
      ],
      [
       16.68979,
       50.91654
      ],
      [
       16.68896,
       50.91536
      ],
      [
       16.68835,
       50.91205
      ],
      [
       16.68716,
       50.9104
      ],
      [
       16.69754,
       50.90892
      ],
      [
       16.69396,
       50.908
      ],
      [
       16.69412,
       50.90622
      ],
      [
       16.69162,
       50.90587
      ],
      [
       16.69349,
       50.90282
      ],
      [
       16.69281,
       50.90104
      ],
      [
       16.69312,
       50.89993
      ],
      [
       16.69491,
       50.89965
      ],
      [
       16.69556,
       50.89856
      ],
      [
       16.69333,
       50.89821
      ],
      [
       16.6938,
       50.89675
      ],
      [
       16.69457,
       50.8966
      ],
      [
       16.69412,
       50.89431
      ],
      [
       16.69575,
       50.89184
      ],
      [
       16.69748,
       50.89146
      ],
      [
       16.69665,
       50.89095
      ],
      [
       16.69568,
       50.88858
      ],
      [
       16.69168,
       50.8872
      ],
      [
       16.68655,
       50.88796
      ],
      [
       16.68528,
       50.88897
      ],
      [
       16.68413,
       50.88854
      ],
      [
       16.68566,
       50.8855
      ],
      [
       16.68433,
       50.88509
      ],
      [
       16.6834,
       50.88603
      ],
      [
       16.68141,
       50.88516
      ],
      [
       16.67952,
       50.88549
      ],
      [
       16.67669,
       50.8819
      ],
      [
       16.67506,
       50.88256
      ],
      [
       16.67398,
       50.8818
      ],
      [
       16.6746,
       50.87857
      ],
      [
       16.67578,
       50.87752
      ],
      [
       16.67482,
       50.87664
      ],
      [
       16.67162,
       50.87682
      ],
      [
       16.67441,
       50.87311
      ],
      [
       16.67753,
       50.87152
      ],
      [
       16.6765,
       50.86941
      ],
      [
       16.67679,
       50.86583
      ],
      [
       16.67611,
       50.86514
      ],
      [
       16.67668,
       50.8617
      ],
      [
       16.67644,
       50.85347
      ],
      [
       16.67543,
       50.85348
      ],
      [
       16.67497,
       50.85118
      ],
      [
       16.67886,
       50.85069
      ],
      [
       16.68132,
       50.85113
      ],
      [
       16.68388,
       50.85043
      ],
      [
       16.68539,
       50.85094
      ],
      [
       16.68711,
       50.85019
      ],
      [
       16.68717,
       50.84542
      ],
      [
       16.68629,
       50.84366
      ],
      [
       16.68806,
       50.84333
      ],
      [
       16.68668,
       50.84051
      ],
      [
       16.69319,
       50.84113
      ],
      [
       16.70124,
       50.84497
      ],
      [
       16.70705,
       50.84495
      ],
      [
       16.72051,
       50.84119
      ],
      [
       16.72774,
       50.83757
      ],
      [
       16.73972,
       50.83665
      ],
      [
       16.74274,
       50.83711
      ],
      [
       16.74657,
       50.8405
      ],
      [
       16.75368,
       50.8439
      ],
      [
       16.76616,
       50.84516
      ],
      [
       16.77506,
       50.84457
      ],
      [
       16.77495,
       50.84277
      ],
      [
       16.77362,
       50.84085
      ],
      [
       16.77427,
       50.83927
      ],
      [
       16.78165,
       50.83525
      ],
      [
       16.79467,
       50.83333
      ],
      [
       16.80619,
       50.83486
      ],
      [
       16.80469,
       50.83255
      ],
      [
       16.80652,
       50.82826
      ],
      [
       16.8057,
       50.82493
      ],
      [
       16.80384,
       50.82157
      ],
      [
       16.80734,
       50.82126
      ],
      [
       16.81254,
       50.81945
      ],
      [
       16.81678,
       50.81959
      ],
      [
       16.81847,
       50.819
      ],
      [
       16.81991,
       50.81949
      ],
      [
       16.82102,
       50.81885
      ],
      [
       16.82289,
       50.82008
      ],
      [
       16.82402,
       50.82001
      ],
      [
       16.82492,
       50.82234
      ],
      [
       16.82287,
       50.82231
      ],
      [
       16.82231,
       50.82452
      ],
      [
       16.82335,
       50.82499
      ],
      [
       16.82165,
       50.82575
      ],
      [
       16.82009,
       50.82785
      ],
      [
       16.8293,
       50.82767
      ],
      [
       16.82834,
       50.83212
      ],
      [
       16.83089,
       50.83197
      ],
      [
       16.8329,
       50.83386
      ],
      [
       16.84096,
       50.83292
      ],
      [
       16.84955,
       50.83302
      ],
      [
       16.85066,
       50.83042
      ],
      [
       16.8578,
       50.83206
      ],
      [
       16.86875,
       50.83162
      ],
      [
       16.87633,
       50.83224
      ],
      [
       16.88078,
       50.82885
      ],
      [
       16.8796,
       50.82559
      ],
      [
       16.87651,
       50.82327
      ],
      [
       16.87656,
       50.82223
      ],
      [
       16.88167,
       50.82117
      ],
      [
       16.88698,
       50.81869
      ],
      [
       16.88942,
       50.81428
      ],
      [
       16.88937,
       50.81343
      ],
      [
       16.88672,
       50.80987
      ],
      [
       16.88883,
       50.80966
      ],
      [
       16.89133,
       50.81044
      ],
      [
       16.89216,
       50.81132
      ],
      [
       16.8981,
       50.81121
      ],
      [
       16.89831,
       50.81209
      ],
      [
       16.90517,
       50.81079
      ],
      [
       16.90584,
       50.81171
      ],
      [
       16.91003,
       50.81166
      ],
      [
       16.91101,
       50.81376
      ],
      [
       16.90311,
       50.81893
      ],
      [
       16.8983,
       50.81895
      ],
      [
       16.89824,
       50.823
      ],
      [
       16.89939,
       50.82907
      ],
      [
       16.91386,
       50.82571
      ],
      [
       16.91727,
       50.8308
      ],
      [
       16.91525,
       50.83108
      ],
      [
       16.92258,
       50.83784
      ],
      [
       16.91988,
       50.83952
      ],
      [
       16.92096,
       50.84045
      ],
      [
       16.91677,
       50.84253
      ],
      [
       16.92125,
       50.8454
      ],
      [
       16.90752,
       50.85354
      ],
      [
       16.90282,
       50.85438
      ],
      [
       16.90276,
       50.85701
      ],
      [
       16.90446,
       50.86006
      ],
      [
       16.90446,
       50.86393
      ],
      [
       16.90216,
       50.86793
      ],
      [
       16.90152,
       50.8704
      ],
      [
       16.9122,
       50.87139
      ],
      [
       16.91907,
       50.86897
      ],
      [
       16.92322,
       50.86598
      ],
      [
       16.92793,
       50.86555
      ],
      [
       16.9334,
       50.86387
      ],
      [
       16.94225,
       50.86506
      ],
      [
       16.94253,
       50.86601
      ],
      [
       16.94467,
       50.86674
      ],
      [
       16.94509,
       50.86808
      ],
      [
       16.94746,
       50.86984
      ],
      [
       16.94351,
       50.8733
      ],
      [
       16.94359,
       50.87439
      ],
      [
       16.94291,
       50.87487
      ],
      [
       16.94408,
       50.87573
      ],
      [
       16.94476,
       50.87799
      ],
      [
       16.94953,
       50.881
      ],
      [
       16.95024,
       50.88248
      ],
      [
       16.95127,
       50.88307
      ],
      [
       16.95128,
       50.88494
      ],
      [
       16.95739,
       50.88532
      ],
      [
       16.95483,
       50.88972
      ],
      [
       16.95138,
       50.8914
      ],
      [
       16.95852,
       50.90432
      ],
      [
       16.96714,
       50.90516
      ],
      [
       16.97193,
       50.90203
      ],
      [
       16.97663,
       50.9
      ],
      [
       16.97801,
       50.90438
      ],
      [
       16.98003,
       50.90735
      ],
      [
       16.97715,
       50.9073
      ],
      [
       16.97544,
       50.90813
      ],
      [
       16.97968,
       50.91359
      ],
      [
       16.98122,
       50.91072
      ],
      [
       16.98723,
       50.91311
      ],
      [
       16.98799,
       50.91448
      ],
      [
       16.98868,
       50.91423
      ],
      [
       16.98915,
       50.91571
      ],
      [
       16.99241,
       50.91301
      ],
      [
       16.99316,
       50.90885
      ],
      [
       16.9962,
       50.90688
      ],
      [
       16.99706,
       50.90706
      ],
      [
       16.99774,
       50.90957
      ],
      [
       16.99929,
       50.90946
      ],
      [
       17.0003,
       50.911
      ],
      [
       17.00225,
       50.91141
      ],
      [
       17.00327,
       50.91736
      ],
      [
       17.01143,
       50.92043
      ],
      [
       17.01734,
       50.91711
      ],
      [
       17.01797,
       50.91538
      ],
      [
       17.01787,
       50.90988
      ],
      [
       17.01955,
       50.90982
      ],
      [
       17.02202,
       50.90857
      ],
      [
       17.02673,
       50.90944
      ],
      [
       17.03239,
       50.90834
      ],
      [
       17.03763,
       50.91676
      ],
      [
       17.04148,
       50.91967
      ],
      [
       17.05155,
       50.91703
      ],
      [
       17.05567,
       50.90467
      ],
      [
       17.06924,
       50.90308
      ],
      [
       17.07262,
       50.90493
      ],
      [
       17.07619,
       50.90556
      ],
      [
       17.08083,
       50.90383
      ],
      [
       17.08339,
       50.9037
      ],
      [
       17.08244,
       50.90725
      ],
      [
       17.07688,
       50.91018
      ],
      [
       17.07621,
       50.91181
      ],
      [
       17.07722,
       50.91436
      ],
      [
       17.07567,
       50.918
      ],
      [
       17.07563,
       50.92221
      ],
      [
       17.07851,
       50.92304
      ],
      [
       17.08009,
       50.92583
      ],
      [
       17.08965,
       50.92414
      ],
      [
       17.10592,
       50.9229
      ],
      [
       17.11174,
       50.91974
      ],
      [
       17.11248,
       50.9212
      ],
      [
       17.11292,
       50.92499
      ],
      [
       17.11118,
       50.92566
      ],
      [
       17.11248,
       50.92884
      ],
      [
       17.11436,
       50.92846
      ],
      [
       17.11507,
       50.93145
      ],
      [
       17.11417,
       50.93396
      ],
      [
       17.11535,
       50.93736
      ],
      [
       17.11274,
       50.9374
      ],
      [
       17.11161,
       50.93818
      ],
      [
       17.10761,
       50.93878
      ],
      [
       17.10796,
       50.94194
      ],
      [
       17.10445,
       50.94375
      ],
      [
       17.1036,
       50.94835
      ],
      [
       17.10432,
       50.95025
      ],
      [
       17.10689,
       50.95228
      ],
      [
       17.10943,
       50.9565
      ],
      [
       17.11513,
       50.96152
      ],
      [
       17.12692,
       50.96004
      ],
      [
       17.13833,
       50.95752
      ],
      [
       17.13815,
       50.95986
      ],
      [
       17.13554,
       50.96487
      ],
      [
       17.14439,
       50.96475
      ],
      [
       17.16007,
       50.96753
      ],
      [
       17.15997,
       50.96834
      ],
      [
       17.16282,
       50.97099
      ],
      [
       17.16308,
       50.9811
      ],
      [
       17.16741,
       50.98609
      ],
      [
       17.16998,
       50.98647
      ],
      [
       17.16761,
       50.98893
      ],
      [
       17.17667,
       50.99289
      ],
      [
       17.18758,
       50.99936
      ],
      [
       17.19363,
       51.00458
      ],
      [
       17.19738,
       51.00944
      ],
      [
       17.20449,
       51.00716
      ],
      [
       17.20619,
       51.00594
      ],
      [
       17.20911,
       51.00652
      ],
      [
       17.21626,
       51.00533
      ],
      [
       17.21946,
       51.00677
      ],
      [
       17.22185,
       51.00917
      ],
      [
       17.22471,
       51.00966
      ],
      [
       17.22603,
       51.01124
      ],
      [
       17.2296,
       51.01117
      ],
      [
       17.23325,
       51.012
      ],
      [
       17.23553,
       51.0117
      ],
      [
       17.2404,
       51.01321
      ],
      [
       17.24378,
       51.01548
      ],
      [
       17.24479,
       51.01789
      ],
      [
       17.24656,
       51.0183
      ],
      [
       17.24987,
       51.01608
      ],
      [
       17.25419,
       51.02031
      ],
      [
       17.25939,
       51.0304
      ],
      [
       17.26127,
       51.03057
      ],
      [
       17.26905,
       51.02442
      ],
      [
       17.278,
       51.01921
      ],
      [
       17.28867,
       51.01489
      ],
      [
       17.29296,
       51.01799
      ],
      [
       17.29207,
       51.01872
      ],
      [
       17.29136,
       51.01844
      ],
      [
       17.29033,
       51.01972
      ],
      [
       17.28829,
       51.01974
      ],
      [
       17.28672,
       51.02127
      ],
      [
       17.28842,
       51.02292
      ],
      [
       17.28798,
       51.02504
      ],
      [
       17.28152,
       51.02854
      ],
      [
       17.28031,
       51.0297
      ],
      [
       17.28062,
       51.0315
      ],
      [
       17.28159,
       51.0321
      ],
      [
       17.28308,
       51.03116
      ],
      [
       17.29506,
       51.04041
      ],
      [
       17.28708,
       51.04424
      ],
      [
       17.27334,
       51.04827
      ],
      [
       17.27498,
       51.05035
      ],
      [
       17.26984,
       51.05169
      ],
      [
       17.27286,
       51.05315
      ],
      [
       17.28432,
       51.0561
      ],
      [
       17.29101,
       51.06071
      ],
      [
       17.29181,
       51.06433
      ],
      [
       17.29608,
       51.0663
      ],
      [
       17.30767,
       51.06626
      ],
      [
       17.32122,
       51.06404
      ],
      [
       17.32263,
       51.06957
      ],
      [
       17.3251,
       51.07248
      ],
      [
       17.32622,
       51.08055
      ],
      [
       17.32733,
       51.08194
      ],
      [
       17.33036,
       51.08324
      ],
      [
       17.33418,
       51.0868
      ],
      [
       17.33769,
       51.08789
      ],
      [
       17.33726,
       51.08797
      ],
      [
       17.33853,
       51.09026
      ],
      [
       17.34018,
       51.09113
      ],
      [
       17.33886,
       51.09148
      ],
      [
       17.34902,
       51.09535
      ],
      [
       17.36109,
       51.09662
      ],
      [
       17.36685,
       51.09938
      ],
      [
       17.36929,
       51.09955
      ],
      [
       17.37598,
       51.1037
      ],
      [
       17.3749,
       51.10522
      ],
      [
       17.37286,
       51.10581
      ],
      [
       17.3658,
       51.11042
      ],
      [
       17.35944,
       51.11039
      ],
      [
       17.3558,
       51.11162
      ],
      [
       17.34999,
       51.11144
      ],
      [
       17.34364,
       51.11252
      ],
      [
       17.32885,
       51.1178
      ],
      [
       17.32987,
       51.12279
      ],
      [
       17.32974,
       51.13429
      ],
      [
       17.33067,
       51.13856
      ],
      [
       17.32884,
       51.14153
      ],
      [
       17.32426,
       51.14507
      ],
      [
       17.32031,
       51.14396
      ],
      [
       17.31519,
       51.14382
      ],
      [
       17.31673,
       51.13791
      ],
      [
       17.31618,
       51.13742
      ],
      [
       17.31048,
       51.13767
      ],
      [
       17.30935,
       51.14178
      ],
      [
       17.30613,
       51.14856
      ],
      [
       17.30247,
       51.14816
      ],
      [
       17.30172,
       51.14932
      ],
      [
       17.29578,
       51.14906
      ],
      [
       17.291,
       51.15017
      ],
      [
       17.29067,
       51.15136
      ],
      [
       17.29177,
       51.15192
      ],
      [
       17.2922,
       51.1535
      ],
      [
       17.29293,
       51.15359
      ],
      [
       17.29309,
       51.15454
      ],
      [
       17.29482,
       51.156
      ],
      [
       17.29302,
       51.1593
      ],
      [
       17.30124,
       51.15815
      ],
      [
       17.30355,
       51.16093
      ],
      [
       17.31771,
       51.15893
      ],
      [
       17.3196,
       51.16153
      ],
      [
       17.32075,
       51.16151
      ],
      [
       17.3266,
       51.15871
      ],
      [
       17.33003,
       51.16012
      ],
      [
       17.33766,
       51.1653
      ],
      [
       17.34502,
       51.16709
      ],
      [
       17.34858,
       51.16717
      ],
      [
       17.34491,
       51.1686
      ],
      [
       17.32453,
       51.17021
      ],
      [
       17.31369,
       51.16724
      ],
      [
       17.30991,
       51.16993
      ],
      [
       17.3109,
       51.17046
      ],
      [
       17.30588,
       51.17271
      ],
      [
       17.30469,
       51.17224
      ],
      [
       17.30247,
       51.17275
      ],
      [
       17.29562,
       51.17269
      ],
      [
       17.2891,
       51.1741
      ],
      [
       17.29291,
       51.17847
      ],
      [
       17.29519,
       51.1799
      ],
      [
       17.29532,
       51.18184
      ],
      [
       17.29768,
       51.1848
      ],
      [
       17.29999,
       51.18657
      ],
      [
       17.30031,
       51.18934
      ],
      [
       17.30305,
       51.19183
      ],
      [
       17.29967,
       51.19362
      ],
      [
       17.30004,
       51.19462
      ],
      [
       17.29903,
       51.19547
      ],
      [
       17.30088,
       51.19838
      ],
      [
       17.30208,
       51.20414
      ],
      [
       17.30677,
       51.21022
      ],
      [
       17.31018,
       51.21181
      ],
      [
       17.31061,
       51.21483
      ],
      [
       17.30244,
       51.21895
      ],
      [
       17.2942,
       51.22576
      ],
      [
       17.27562,
       51.22359
      ],
      [
       17.27129,
       51.22453
      ],
      [
       17.26828,
       51.22648
      ],
      [
       17.26696,
       51.23074
      ],
      [
       17.26596,
       51.23209
      ],
      [
       17.26008,
       51.23261
      ],
      [
       17.25856,
       51.23623
      ],
      [
       17.25578,
       51.23798
      ],
      [
       17.25096,
       51.2395
      ],
      [
       17.25568,
       51.24293
      ],
      [
       17.26106,
       51.25242
      ],
      [
       17.25943,
       51.25334
      ],
      [
       17.25879,
       51.25447
      ],
      [
       17.25223,
       51.25704
      ],
      [
       17.24515,
       51.26259
      ],
      [
       17.23824,
       51.26416
      ],
      [
       17.24212,
       51.26699
      ],
      [
       17.24168,
       51.26958
      ],
      [
       17.2262,
       51.27259
      ],
      [
       17.22659,
       51.27402
      ],
      [
       17.22333,
       51.2749
      ],
      [
       17.21557,
       51.27491
      ],
      [
       17.21261,
       51.2744
      ],
      [
       17.21026,
       51.27149
      ],
      [
       17.20734,
       51.27043
      ],
      [
       17.20522,
       51.27114
      ],
      [
       17.20185,
       51.26777
      ],
      [
       17.20372,
       51.26699
      ],
      [
       17.20137,
       51.26646
      ],
      [
       17.20058,
       51.26808
      ],
      [
       17.19907,
       51.26875
      ],
      [
       17.19774,
       51.27255
      ],
      [
       17.19448,
       51.27531
      ],
      [
       17.18993,
       51.27637
      ],
      [
       17.18781,
       51.27506
      ],
      [
       17.18692,
       51.27576
      ],
      [
       17.18177,
       51.27558
      ],
      [
       17.17997,
       51.26896
      ],
      [
       17.17969,
       51.26443
      ],
      [
       17.17835,
       51.25832
      ],
      [
       17.17639,
       51.25511
      ],
      [
       17.17857,
       51.25174
      ],
      [
       17.17315,
       51.25212
      ],
      [
       17.17258,
       51.24954
      ],
      [
       17.17496,
       51.24897
      ],
      [
       17.17323,
       51.24513
      ],
      [
       17.17101,
       51.24634
      ],
      [
       17.16679,
       51.24427
      ],
      [
       17.16007,
       51.24364
      ],
      [
       17.15867,
       51.24299
      ],
      [
       17.15765,
       51.23958
      ],
      [
       17.14542,
       51.24173
      ],
      [
       17.14754,
       51.24388
      ],
      [
       17.14072,
       51.24684
      ],
      [
       17.14095,
       51.24732
      ],
      [
       17.1362,
       51.25142
      ],
      [
       17.13326,
       51.25229
      ],
      [
       17.13371,
       51.25293
      ],
      [
       17.1332,
       51.25383
      ],
      [
       17.12363,
       51.25583
      ],
      [
       17.12302,
       51.25578
      ],
      [
       17.12346,
       51.255
      ],
      [
       17.12285,
       51.25167
      ],
      [
       17.11865,
       51.24328
      ],
      [
       17.10521,
       51.24555
      ],
      [
       17.09833,
       51.24787
      ],
      [
       17.09229,
       51.24909
      ],
      [
       17.09127,
       51.24877
      ],
      [
       17.08669,
       51.241
      ],
      [
       17.08042,
       51.24166
      ],
      [
       17.07697,
       51.23912
      ],
      [
       17.07284,
       51.23292
      ],
      [
       17.07964,
       51.22358
      ],
      [
       17.08322,
       51.2246
      ],
      [
       17.08694,
       51.22375
      ],
      [
       17.08554,
       51.22249
      ],
      [
       17.08324,
       51.2226
      ],
      [
       17.08078,
       51.22096
      ],
      [
       17.08747,
       51.21432
      ],
      [
       17.08989,
       51.20405
      ],
      [
       17.09399,
       51.19742
      ],
      [
       17.0929,
       51.19455
      ],
      [
       17.09835,
       51.19399
      ],
      [
       17.09761,
       51.18648
      ],
      [
       17.0969,
       51.18636
      ],
      [
       17.09759,
       51.1863
      ],
      [
       17.10029,
       51.17586
      ],
      [
       17.11029,
       51.17303
      ],
      [
       17.11229,
       51.17515
      ],
      [
       17.11362,
       51.174
      ],
      [
       17.12487,
       51.17073
      ],
      [
       17.12575,
       51.17273
      ],
      [
       17.12778,
       51.17311
      ],
      [
       17.1304,
       51.17485
      ],
      [
       17.12926,
       51.17477
      ],
      [
       17.13096,
       51.17888
      ]
     ]
    ]
   }
  },
  {
   "type": "Feature",
   "properties": {
    "@id": "relation/3049634",
    "admin_level": "7",
    "boundary": "administrative",
    "name": "gmina Jordanów Śląski",
    "population": "3197",
    "type": "boundary",
    "wikidata": "Q2191877",
    "wikipedia": "pl:Jordanów Śląski (gmina)"
   },
   "geometry": {
    "type": "Polygon",
    "coordinates": [
     [
      [
       16.90047,
       50.88569
      ],
      [
       16.89721,
       50.88797
      ],
      [
       16.89775,
       50.89248
      ],
      [
       16.8858,
       50.89387
      ],
      [
       16.88446,
       50.89301
      ],
      [
       16.88132,
       50.89333
      ],
      [
       16.88175,
       50.89385
      ],
      [
       16.86311,
       50.89983
      ],
      [
       16.86405,
       50.90512
      ],
      [
       16.86402,
       50.90902
      ],
      [
       16.86034,
       50.90759
      ],
      [
       16.85421,
       50.90704
      ],
      [
       16.84926,
       50.90458
      ],
      [
       16.84744,
       50.90427
      ],
      [
       16.84305,
       50.90519
      ],
      [
       16.84051,
       50.90479
      ],
      [
       16.83008,
       50.9079
      ],
      [
       16.82718,
       50.91145
      ],
      [
       16.82323,
       50.89524
      ],
      [
       16.82828,
       50.89427
      ],
      [
       16.8325,
       50.89473
      ],
      [
       16.84022,
       50.89042
      ],
      [
       16.83983,
       50.88877
      ],
      [
       16.83456,
       50.88294
      ],
      [
       16.83966,
       50.8815
      ],
      [
       16.84109,
       50.88053
      ],
      [
       16.8408,
       50.88003
      ],
      [
       16.83381,
       50.87352
      ],
      [
       16.82807,
       50.87106
      ],
      [
       16.8212,
       50.8697
      ],
      [
       16.82157,
       50.8663
      ],
      [
       16.81341,
       50.86772
      ],
      [
       16.81407,
       50.86471
      ],
      [
       16.81602,
       50.8608
      ],
      [
       16.81134,
       50.85966
      ],
      [
       16.79763,
       50.85811
      ],
      [
       16.79764,
       50.85762
      ],
      [
       16.79255,
       50.85789
      ],
      [
       16.79057,
       50.85719
      ],
      [
       16.78737,
       50.85513
      ],
      [
       16.78252,
       50.8487
      ],
      [
       16.77563,
       50.84579
      ],
      [
       16.77485,
       50.84251
      ],
      [
       16.7736,
       50.84062
      ],
      [
       16.7744,
       50.83911
      ],
      [
       16.77904,
       50.83636
      ],
      [
       16.78541,
       50.83453
      ],
      [
       16.79586,
       50.83333
      ],
      [
       16.80619,
       50.83486
      ],
      [
       16.80469,
       50.83255
      ],
      [
       16.80652,
       50.82826
      ],
      [
       16.8057,
       50.82493
      ],
      [
       16.80384,
       50.82157
      ],
      [
       16.80734,
       50.82126
      ],
      [
       16.81318,
       50.81937
      ],
      [
       16.81678,
       50.81959
      ],
      [
       16.81847,
       50.819
      ],
      [
       16.81991,
       50.81949
      ],
      [
       16.82121,
       50.81886
      ],
      [
       16.82281,
       50.82005
      ],
      [
       16.82402,
       50.82001
      ],
      [
       16.82492,
       50.82234
      ],
      [
       16.82287,
       50.82231
      ],
      [
       16.82231,
       50.82452
      ],
      [
       16.82335,
       50.82499
      ],
      [
       16.82165,
       50.82575
      ],
      [
       16.82009,
       50.82785
      ],
      [
       16.8293,
       50.82767
      ],
      [
       16.82834,
       50.83212
      ],
      [
       16.83089,
       50.83197
      ],
      [
       16.8329,
       50.83386
      ],
      [
       16.84096,
       50.83292
      ],
      [
       16.84955,
       50.83302
      ],
      [
       16.85066,
       50.83042
      ],
      [
       16.8578,
       50.83206
      ],
      [
       16.86875,
       50.83162
      ],
      [
       16.87633,
       50.83224
      ],
      [
       16.88078,
       50.82885
      ],
      [
       16.8796,
       50.82559
      ],
      [
       16.87651,
       50.82327
      ],
      [
       16.87656,
       50.82223
      ],
      [
       16.88167,
       50.82117
      ],
      [
       16.88698,
       50.81869
      ],
      [
       16.88942,
       50.81428
      ],
      [
       16.88937,
       50.81343
      ],
      [
       16.88672,
       50.80987
      ],
      [
       16.88883,
       50.80966
      ],
      [
       16.89133,
       50.81044
      ],
      [
       16.89216,
       50.81132
      ],
      [
       16.8981,
       50.81121
      ],
      [
       16.89831,
       50.81209
      ],
      [
       16.90517,
       50.81079
      ],
      [
       16.90584,
       50.81171
      ],
      [
       16.91003,
       50.81166
      ],
      [
       16.91101,
       50.81376
      ],
      [
       16.90311,
       50.81893
      ],
      [
       16.8983,
       50.81895
      ],
      [
       16.89824,
       50.823
      ],
      [
       16.89939,
       50.82907
      ],
      [
       16.91386,
       50.82571
      ],
      [
       16.91727,
       50.8308
      ],
      [
       16.91525,
       50.83108
      ],
      [
       16.92258,
       50.83784
      ],
      [
       16.91988,
       50.83952
      ],
      [
       16.92096,
       50.84045
      ],
      [
       16.91677,
       50.84253
      ],
      [
       16.92125,
       50.8454
      ],
      [
       16.90752,
       50.85354
      ],
      [
       16.90282,
       50.85438
      ],
      [
       16.90276,
       50.85701
      ],
      [
       16.90446,
       50.86006
      ],
      [
       16.90446,
       50.86393
      ],
      [
       16.90216,
       50.86793
      ],
      [
       16.90155,
       50.87026
      ],
      [
       16.89967,
       50.87
      ],
      [
       16.90047,
       50.88569
      ]
     ]
    ]
   }
  }
 ]
}
